[
  {
    "id": "1",
    "name": "Barishal",
    "bn_name": "বরিশাল",
    "lat": "22.701002",
    "long": "90.353451",
    "districts": [
      {
        "id": "34",
        "name": "Barguna",
        "bn_name": "বরগুনা",
        "lat": "22.0953",
        "long": "90.1121",
        "subdistricts": [
          {
            "id": "1",
            "name": "Amtali",
            "bn_name": "আমতলী",
            "lat": "22.074952520443563",
            "long": "90.20266601007562",
            "icon": "barishal_barguna_amtali.jpeg"
          },
          {
            "id": "2",
            "name": "Bamna",
            "bn_name": "বামনা",
            "lat": "22.272406280530333",
            "long": "90.05796842203304",
            "icon": "barishal_barguna_bamna.jpeg"
          },
          {
            "id": "3",
            "name": "Barguna Sadar",
            "bn_name": "বরগুনা সদর",
            "lat": "22.134547062847037",
            "long": "90.10895597769344",
            "icon": "barishal_barguna_barguna_sadar.jpeg"
          },
          {
            "id": "4",
            "name": "Betagi",
            "bn_name": "বেতাগি",
            "lat": "22.34715352852811",
            "long": "90.14809835969028",
            "icon": "barishal_barguna_betagi.jpeg"
          },
          {
            "id": "5",
            "name": "Patharghata",
            "bn_name": "পাথরঘাটা",
            "lat": "22.09475748553241",
            "long": "89.96621033037577",
            "icon": "barishal_barguna_patharghata.jpeg"
          },
          {
            "id": "6",
            "name": "Taltali",
            "bn_name": "তালতলী",
            "lat": "24.886791068687995",
            "long": "89.4649684933579",
            "icon": "barishal_barguna_taltali.jpeg"
          }
        ],
        "icon": "barishal_barguna.jpeg"
      },
      {
        "id": "35",
        "name": "Barishal",
        "bn_name": "বরিশাল",
        "lat": "22.7010",
        "long": "90.3535",
        "subdistricts": [
          {
            "id": "7",
            "name": "Muladi",
            "bn_name": "মুলাদি",
            "lat": "22.952734119078592",
            "long": "90.37622651974412",
            "icon": "barishal_barishal_muladi.jpeg"
          },
          {
            "id": "8",
            "name": "Babuganj",
            "bn_name": "বাবুগঞ্জ",
            "lat": "22.823494956403756",
            "long": "90.31461761924992",
            "icon": "barishal_barishal_babuganj.jpeg"
          },
          {
            "id": "9",
            "name": "Agailjhara",
            "bn_name": "আগাইলঝরা",
            "lat": "22.96784467745809",
            "long": "90.14076039190546",
            "icon": "barishal_barishal_agailjhara.jpeg"
          },
          {
            "id": "10",
            "name": "Barisal Sadar",
            "bn_name": "বরিশাল সদর",
            "lat": "22.71338549755407",
            "long": "90.39419494192325",
            "icon": "barishal_barishal_barisal_sadar.jpeg"
          },
          {
            "id": "11",
            "name": "Bakerganj",
            "bn_name": "বাকেরগঞ্জ",
            "lat": "22.55301251175679",
            "long": "90.38462880694344",
            "icon": "barishal_barishal_bakerganj.jpeg"
          },
          {
            "id": "12",
            "name": "Banari Para",
            "bn_name": "বানাড়িপারা",
            "lat": "22.811733064096583",
            "long": "90.12854449713436",
            "icon": "barishal_barishal_banari_para.jpeg"
          },
          {
            "id": "13",
            "name": "Gouranadi",
            "bn_name": "গৌরনদী",
            "lat": "22.966366098798048",
            "long": "90.24466946274552",
            "icon": "barishal_barishal_gouranadi.jpeg"
          },
          {
            "id": "14",
            "name": "Hizla",
            "bn_name": "হিজলা",
            "lat": "22.95620983682447",
            "long": "90.52195182466755",
            "icon": "barishal_barishal_hizla.jpeg"
          },
          {
            "id": "15",
            "name": "Mehendiganj",
            "bn_name": "মেহেদিগঞ্জ ",
            "lat": "22.819224067705637",
            "long": "90.50760706169082",
            "icon": "barishal_barishal_mehendiganj.jpeg"
          },
          {
            "id": "16",
            "name": "Wazirpur",
            "bn_name": "ওয়াজিরপুর",
            "lat": "22.865576563915077",
            "long": "90.16602396780264",
            "icon": "barishal_barishal_wazirpur.jpeg"
          }
        ],
        "icon": "barishal_barishal.jpeg"
      },
      {
        "id": "36",
        "name": "Bhola",
        "bn_name": "ভোলা",
        "lat": "22.685923",
        "long": "90.648179",
        "subdistricts": [
          {
            "id": "17",
            "name": "Bhola Sadar",
            "bn_name": "ভোলা সদর",
            "lat": "22.688744132772932",
            "long": "90.61512941128218",
            "icon": "barishal_bhola_bhola_sadar.jpeg"
          },
          {
            "id": "18",
            "name": "Borhanuddin",
            "bn_name": "বোরহানউদ্দিন",
            "lat": "22.4828916811372",
            "long": "90.7184971338138",
            "icon": "barishal_bhola_borhanuddin.jpeg"
          },
          {
            "id": "19",
            "name": "Char Fasson",
            "bn_name": "চর ফ্যাশন",
            "lat": "22.0860445865369",
            "long": "90.70531431091148",
            "icon": "barishal_bhola_char_fasson.jpeg"
          },
          {
            "id": "20",
            "name": "Daulatkhan",
            "bn_name": "দৌলতখান",
            "lat": "22.61158807551335",
            "long": "90.70727812501048",
            "icon": "barishal_bhola_daulatkhan.jpeg"
          },
          {
            "id": "21",
            "name": "Lalmohan",
            "bn_name": "লালমোহন",
            "lat": "22.3161345805318",
            "long": "90.7516081709049",
            "icon": "barishal_bhola_lalmohan.jpeg"
          },
          {
            "id": "22",
            "name": "Manpura",
            "bn_name": "মনপুরা",
            "lat": "22.22379654546291",
            "long": "90.94857878454096",
            "icon": "barishal_bhola_manpura.jpeg"
          },
          {
            "id": "23",
            "name": "Tazumuddin",
            "bn_name": "তাজুমুদ্দিন",
            "lat": "22.43888808574486",
            "long": "90.85789253369974",
            "icon": "barishal_bhola_tazumuddin.jpeg"
          }
        ],
        "icon": "barishal_bhola.jpeg"
      },
      {
        "id": "37",
        "name": "Jhalokati",
        "bn_name": "ঝালকাঠি",
        "lat": "22.6406",
        "long": "90.1987",
        "subdistricts": [
          {
            "id": "24",
            "name": "Jhalokati Sadar",
            "bn_name": "ঝালকাঠি সদর",
            "lat": "22.679684910842397",
            "long": "90.19227473458058",
            "icon": "barishal_jhalokati_jhalokati_sadar.jpeg"
          },
          {
            "id": "25",
            "name": "Kathalia",
            "bn_name": "কাঁঠালিয়া",
            "lat": "22.42027464896919",
            "long": "90.10231871893608",
            "icon": "barishal_jhalokati_kathalia.jpeg"
          },
          {
            "id": "26",
            "name": "Nalchity",
            "bn_name": "নালচিতি",
            "lat": "22.60070884941234",
            "long": "90.27357160028306",
            "icon": "barishal_jhalokati_nalchity.jpeg"
          },
          {
            "id": "27",
            "name": "Rajapur",
            "bn_name": "রাজাপুর",
            "lat": "22.55074035232275",
            "long": "90.1311048578676",
            "icon": "barishal_jhalokati_rajapur.jpeg"
          }
        ],
        "icon": "barishal_jhalokati.jpeg"
      },
      {
        "id": "38",
        "name": "Patuakhali",
        "bn_name": "পটুয়াখালী",
        "lat": "22.3596316",
        "long": "90.3298712",
        "subdistricts": [
          {
            "id": "28",
            "name": "Bauphal",
            "bn_name": "বাউফল",
            "lat": "22.43536028238016",
            "long": "90.53900089627908",
            "icon": "barishal_patuakhali_bauphal.jpeg"
          },
          {
            "id": "29",
            "name": "Dashmina",
            "bn_name": "দশমিনা",
            "lat": "22.26430343784288",
            "long": "90.54904284779056",
            "icon": "barishal_patuakhali_dashmina.jpeg"
          },
          {
            "id": "30",
            "name": "Galachipa",
            "bn_name": "গলাচিপা",
            "lat": "22.053174048117565",
            "long": "90.45077948981071",
            "icon": "barishal_patuakhali_galachipa.jpeg"
          },
          {
            "id": "31",
            "name": "Kala Para",
            "bn_name": "কালাপারা",
            "lat": "21.93565341528617",
            "long": "90.21841779993784"
          },
          {
            "id": "32",
            "name": "Mirzaganj",
            "bn_name": "মির্জাগঞ্জ ",
            "lat": "22.356793048356277",
            "long": "90.21663022839192",
            "icon": "barishal_patuakhali_mirzaganj.jpeg"
          },
          {
            "id": "33",
            "name": "Patuakhali Sadar",
            "bn_name": "পটুয়াখালী সদর",
            "lat": "22.335832585984058",
            "long": "90.32893639151008",
            "icon": "barishal_patuakhali_patuakhali_sadar.jpeg"
          },
          {
            "id": "34",
            "name": "Dumki",
            "bn_name": "ডুমকি",
            "lat": "22.45040411116523",
            "long": "90.371872005038",
            "icon": "barishal_patuakhali_dumki.jpeg"
          },
          {
            "id": "35",
            "name": "Rangabali",
            "bn_name": "রাঙ্গাবালি",
            "lat": "22.63660464838762",
            "long": "92.19887071691926",
            "icon": "barishal_patuakhali_rangabali.jpeg"
          }
        ],
        "icon": "barishal_patuakhali.jpeg"
      },
      {
        "id": "39",
        "name": "Pirojpur",
        "bn_name": "পিরোজপুর",
        "lat": "22.5841",
        "long": "89.9720",
        "subdistricts": [
          {
            "id": "36",
            "name": "Bhandaria",
            "bn_name": "ভ্যান্ডারিয়া",
            "lat": "22.45419350800777",
            "long": "90.02157176359911",
            "icon": "barishal_pirojpur_bhandaria.jpeg"
          },
          {
            "id": "37",
            "name": "Kaukhali",
            "bn_name": "কাউখালি",
            "lat": "23.740989287483167",
            "long": "89.47418063554636",
            "icon": "barishal_pirojpur_kaukhali.png"
          },
          {
            "id": "38",
            "name": "Mathbaria",
            "bn_name": "মাঠবাড়িয়া",
            "lat": "22.28518497740559",
            "long": "89.95058550147054",
            "icon": "barishal_pirojpur_mathbaria.jpeg"
          },
          {
            "id": "39",
            "name": "Nazirpur",
            "bn_name": "নাজিরপুর",
            "lat": "22.77033534459817",
            "long": "89.97438851843509",
            "icon": "barishal_pirojpur_nazirpur.jpeg"
          },
          {
            "id": "40",
            "name": "Nesarabad",
            "bn_name": "নেসারাবাদ",
            "lat": "22.722549295968275",
            "long": "90.08568011731826",
            "icon": "barishal_pirojpur_nesarabad.jpeg"
          },
          {
            "id": "41",
            "name": "Pirojpur Sadar",
            "bn_name": "পিরোজপুর সদর",
            "lat": "22.60875442168357",
            "long": "89.98107149623955",
            "icon": "barishal_pirojpur_pirojpur_sadar.jpeg"
          },
          {
            "id": "42",
            "name": "Zianagar",
            "bn_name": "জিয়ানগর",
            "lat": "22.465509684874785",
            "long": "89.93428830875375",
            "icon": "barishal_pirojpur_zianagar.jpeg"
          }
        ],
        "icon": "barishal_pirojpur.jpeg"
      }
    ],
    "icon": "barishal.jpeg"
  },
  {
    "id": "2",
    "name": "Chattogram",
    "bn_name": "চট্টগ্রাম",
    "lat": "22.356851",
    "long": "91.783182",
    "districts": [
      {
        "id": "40",
        "name": "Bandarban",
        "bn_name": "বান্দরবান",
        "lat": "22.1953275",
        "long": "92.2183773",
        "subdistricts": [
          {
            "id": "43",
            "name": "Bandarban Sadar",
            "bn_name": "বান্দরবন সদর",
            "lat": "22.170954265063187",
            "long": "92.21828394101628",
            "icon": "chattogram_bandarban_bandarban_sadar.jpeg"
          },
          {
            "id": "44",
            "name": "Thanchi",
            "bn_name": "থানচি",
            "lat": "21.63725085057083",
            "long": "92.53090571823223",
            "icon": "chattogram_bandarban_thanchi.jpeg"
          },
          {
            "id": "45",
            "name": "Lama",
            "bn_name": "লামা",
            "lat": "21.817973687750847",
            "long": "92.20760566669531",
            "icon": "chattogram_bandarban_lama.jpeg"
          },
          {
            "id": "46",
            "name": "Naikhongchhari",
            "bn_name": "নাইখংছড়ি ",
            "lat": "21.468989816950646",
            "long": "92.22875138108084",
            "icon": "chattogram_bandarban_naikhongchhari.jpeg"
          },
          {
            "id": "47",
            "name": "Alikadam",
            "bn_name": "আলীকদম",
            "lat": "21.600069585425462",
            "long": "92.384647016343",
            "icon": "chattogram_bandarban_alikadam.jpeg"
          },
          {
            "id": "48",
            "name": "Rowangchhari",
            "bn_name": "রউয়াংছড়ি ",
            "lat": "22.209358799486065",
            "long": "92.33992842909711",
            "icon": "chattogram_bandarban_rowangchhari.jpeg"
          },
          {
            "id": "49",
            "name": "Ruma",
            "bn_name": "রুমা",
            "lat": "22.01267064335965",
            "long": "92.42925641921832",
            "icon": "chattogram_bandarban_ruma.jpeg"
          }
        ],
        "icon": "chattogram_bandarban.jpeg"
      },
      {
        "id": "41",
        "name": "Brahmanbaria",
        "bn_name": "ব্রাহ্মণবাড়িয়া",
        "lat": "23.9570904",
        "long": "91.1119286",
        "subdistricts": [
          {
            "id": "50",
            "name": "Brahmanbaria Sadar",
            "bn_name": "ব্রাহ্মণবাড়িয়া সদর",
            "lat": "23.95054298991269",
            "long": "91.11894272475227",
            "icon": "chattogram_brahmanbaria_brahmanbaria_sadar.jpeg"
          },
          {
            "id": "51",
            "name": "Ashuganj",
            "bn_name": "আশুগঞ্জ",
            "lat": "24.015792822313337",
            "long": "91.01834647695368",
            "icon": "chattogram_brahmanbaria_ashuganj.jpeg"
          },
          {
            "id": "52",
            "name": "Nasirnagar",
            "bn_name": "নাসির নগর",
            "lat": "24.182239110174336",
            "long": "91.18752102161692",
            "icon": "chattogram_brahmanbaria_nasirnagar.jpeg"
          },
          {
            "id": "53",
            "name": "Nabinagar",
            "bn_name": "নবীনগর",
            "lat": "23.863571472596988",
            "long": "90.98052706768884",
            "icon": "chattogram_brahmanbaria_nabinagar.jpeg"
          },
          {
            "id": "54",
            "name": "Sarail",
            "bn_name": "সরাইল",
            "lat": "24.103278965645693",
            "long": "91.11217648361618",
            "icon": "chattogram_brahmanbaria_sarail.jpeg"
          },
          {
            "id": "55",
            "name": "Shahbazpur",
            "bn_name": "শাহবাজপুর",
            "lat": "24.16278231814884",
            "long": "89.63009881731487",
            "icon": "chattogram_brahmanbaria_shahbazpur.jpeg"
          },
          {
            "id": "56",
            "name": "Kasba",
            "bn_name": "কসবা",
            "lat": "23.763056496427645",
            "long": "91.13029272512703",
            "icon": "chattogram_brahmanbaria_kasba.jpeg"
          },
          {
            "id": "57",
            "name": "Akhaura",
            "bn_name": "আখাউরা",
            "lat": "23.83858276594071",
            "long": "91.1951492973937",
            "icon": "chattogram_brahmanbaria_akhaura.jpeg"
          },
          {
            "id": "58",
            "name": "Ban Charampur",
            "bn_name": "বাঞ্ছারামপুর",
            "lat": "23.7801305567382",
            "long": "90.80701987277628"
          },
          {
            "id": "59",
            "name": "Bijoynagar",
            "bn_name": "বিজয় নগর",
            "lat": "23.99431989921806",
            "long": "91.22810901689104",
            "icon": "chattogram_brahmanbaria_bijoynagar.jpeg"
          }
        ],
        "icon": "chattogram_brahmanbaria.jpeg"
      },
      {
        "id": "42",
        "name": "Chandpur",
        "bn_name": "চাঁদপুর",
        "lat": "23.2332585",
        "long": "90.6712912",
        "subdistricts": [
          {
            "id": "60",
            "name": "Chandpur Sadar",
            "bn_name": "চাঁদপুর সদর",
            "lat": "23.230333869969705",
            "long": "90.6852929287371",
            "icon": "chattogram_chandpur_chandpur_sadar.jpeg"
          },
          {
            "id": "61",
            "name": "Faridganj",
            "bn_name": "ফরিদগঞ্জ",
            "lat": "23.146277243240384",
            "long": "90.76096326755535",
            "icon": "chattogram_chandpur_faridganj.jpeg"
          },
          {
            "id": "62",
            "name": "Haim Char",
            "bn_name": "হাইমচর",
            "lat": "23.06946868856105",
            "long": "90.62650351260886",
            "icon": "chattogram_chandpur_haim_char.jpeg"
          },
          {
            "id": "63",
            "name": "Haziganj",
            "bn_name": "হাজীগঞ্জ",
            "lat": "23.262861654605057",
            "long": "90.83732815886148",
            "icon": "chattogram_chandpur_haziganj.jpeg"
          },
          {
            "id": "64",
            "name": "Kachua",
            "bn_name": "কচুয়া",
            "lat": "23.362612289077",
            "long": "90.88169724983594",
            "icon": "chattogram_chandpur_kachua.jpeg"
          },
          {
            "id": "65",
            "name": "Matlab Uttar",
            "bn_name": "মতলব উত্তর",
            "lat": "23.41360856744485",
            "long": "90.6419802435055",
            "icon": "chattogram_chandpur_matlab_uttar.jpeg"
          },
          {
            "id": "66",
            "name": "Matlab Dakkhin",
            "bn_name": "মতলব দক্ষিণ",
            "lat": "23.349772768819765",
            "long": "90.74691977254908",
            "icon": "chattogram_chandpur_matlab_dakkhin.jpeg"
          },
          {
            "id": "67",
            "name": "Shahrasti",
            "bn_name": "শাহরাস্তি",
            "lat": "23.20868213483804",
            "long": "90.95696880197376",
            "icon": "chattogram_chandpur_shahrasti.jpeg"
          }
        ],
        "icon": "chattogram_chandpur.jpeg"
      },
      {
        "id": "43",
        "name": "Chattogram",
        "bn_name": "চট্টগ্রাম",
        "lat": "22.335109",
        "long": "91.834073",
        "subdistricts": [
          {
            "id": "68",
            "name": "Anwara",
            "bn_name": "আনোয়ারা",
            "lat": "22.20177559137205",
            "long": "91.88138318355828",
            "icon": "chattogram_chattogram_anwara.jpeg"
          },
          {
            "id": "69",
            "name": "Banshkhali",
            "bn_name": "বাশখালি",
            "lat": "22.015856776051155",
            "long": "91.93977411619404",
            "icon": "chattogram_chattogram_banshkhali.jpeg"
          },
          {
            "id": "70",
            "name": "Boalkhali",
            "bn_name": "বোয়ালখালি",
            "lat": "22.376777031716315",
            "long": "91.96897812799958",
            "icon": "chattogram_chattogram_boalkhali.jpeg"
          },
          {
            "id": "71",
            "name": "Chandanaish",
            "bn_name": "চন্দনাইশ",
            "lat": "22.212119222714325",
            "long": "92.06330500674603",
            "icon": "chattogram_chattogram_chandanaish.jpeg"
          },
          {
            "id": "72",
            "name": "Fatikchhari",
            "bn_name": "ফটিকছড়ি",
            "lat": "22.75634788997754",
            "long": "91.74723378971474",
            "icon": "chattogram_chattogram_fatikchhari.jpeg"
          },
          {
            "id": "73",
            "name": "Hathazari",
            "bn_name": "হাঠহাজারী",
            "lat": "22.52785903457115",
            "long": "91.79787472679942",
            "icon": "chattogram_chattogram_hathazari.jpeg"
          },
          {
            "id": "74",
            "name": "Lohagara",
            "bn_name": "লোহাগারা",
            "lat": "21.986215905087235",
            "long": "92.11112248149234",
            "icon": "chattogram_chattogram_lohagara.jpeg"
          },
          {
            "id": "75",
            "name": "Mirsharai",
            "bn_name": "মিরসরাই",
            "lat": "22.80995523614312",
            "long": "91.55014380826742",
            "icon": "chattogram_chattogram_mirsharai.jpeg"
          },
          {
            "id": "76",
            "name": "Patiya",
            "bn_name": "পটিয়া",
            "lat": "22.29210438106652",
            "long": "91.96383770441214",
            "icon": "chattogram_chattogram_patiya.jpeg"
          },
          {
            "id": "77",
            "name": "Rangunia",
            "bn_name": "রাঙ্গুনিয়া",
            "lat": "22.46500081243792",
            "long": "92.06658304338178",
            "icon": "chattogram_chattogram_rangunia.jpeg"
          },
          {
            "id": "78",
            "name": "Raozan",
            "bn_name": "রাউজান",
            "lat": "22.520779549741935",
            "long": "91.91690790352104",
            "icon": "chattogram_chattogram_raozan.jpeg"
          },
          {
            "id": "79",
            "name": "Sandwip",
            "bn_name": "সন্দ্বীপ",
            "lat": "22.524774392388125",
            "long": "91.45345286549752",
            "icon": "chattogram_chattogram_sandwip.jpeg"
          },
          {
            "id": "80",
            "name": "Satkania",
            "bn_name": "সাতকানিয়া",
            "lat": "22.105160099738615",
            "long": "92.05952333411776",
            "icon": "chattogram_chattogram_satkania.jpeg"
          },
          {
            "id": "81",
            "name": "Sitakunda",
            "bn_name": "সীতাকুণ্ড",
            "lat": "22.558890735305337",
            "long": "91.6827970294695",
            "icon": "chattogram_chattogram_sitakunda.jpeg"
          }
        ],
        "icon": "chattogram_chattogram.jpeg"
      },
      {
        "id": "44",
        "name": "Cumilla",
        "bn_name": "কুমিল্লা",
        "lat": "23.4682747",
        "long": "91.1788135",
        "subdistricts": [
          {
            "id": "82",
            "name": "Barura",
            "bn_name": "বড়ুরা",
            "lat": "23.355703494392657",
            "long": "91.03942718539146",
            "icon": "chattogram_cumilla_barura.jpeg"
          },
          {
            "id": "83",
            "name": "Brahman Para",
            "bn_name": "ব্রাহ্মণপাড়া",
            "lat": "23.95054298991269",
            "long": "91.11894272475227",
            "icon": "chattogram_cumilla_brahman_para.jpeg"
          },
          {
            "id": "84",
            "name": "Burichong",
            "bn_name": "বুড়িচং",
            "lat": "23.53364837517285",
            "long": "91.11701756507912",
            "icon": "chattogram_cumilla_burichong.jpeg"
          },
          {
            "id": "85",
            "name": "Chandina",
            "bn_name": "চান্দিনা",
            "lat": "23.445940896374243",
            "long": "90.94651332166195",
            "icon": "chattogram_cumilla_chandina.jpeg"
          },
          {
            "id": "86",
            "name": "Chauddagram",
            "bn_name": "চৌদ্দগ্রাম",
            "lat": "23.220073202920577",
            "long": "91.2804023912086",
            "icon": "chattogram_cumilla_chauddagram.jpeg"
          },
          {
            "id": "87",
            "name": "Daudkandi",
            "bn_name": "দাউদকান্দি",
            "lat": "23.50259400221839",
            "long": "90.77312346831847",
            "icon": "chattogram_cumilla_daudkandi.jpeg"
          },
          {
            "id": "88",
            "name": "Debidwar",
            "bn_name": "দেবীদ্বার",
            "lat": "23.578342133123588",
            "long": "90.99786266317034",
            "icon": "chattogram_cumilla_debidwar.jpeg"
          },
          {
            "id": "89",
            "name": "Homna",
            "bn_name": "হোমনা",
            "lat": "23.67923685185898",
            "long": "90.81273855745536",
            "icon": "chattogram_cumilla_homna.jpeg"
          },
          {
            "id": "90",
            "name": "Comilla Sadar",
            "bn_name": "কুমিল্লা সদর",
            "lat": "23.469790506024303",
            "long": "91.17115152342554",
            "icon": "chattogram_cumilla_comilla_sadar.jpeg"
          },
          {
            "id": "91",
            "name": "Laksam",
            "bn_name": "লাকসাম",
            "lat": "23.238701605548837",
            "long": "91.10523680786294",
            "icon": "chattogram_cumilla_laksam.jpeg"
          },
          {
            "id": "92",
            "name": "Monohorgonj",
            "bn_name": "মনোহরগঞ্জ",
            "lat": "23.1632",
            "long": "91.0499",
            "icon": "chattogram_cumilla_monohorgonj.jpeg"
          },
          {
            "id": "93",
            "name": "Meghna",
            "bn_name": "মেঘনা",
            "lat": "23.624751161418786",
            "long": "90.69085894299694",
            "icon": "chattogram_cumilla_meghna.jpeg"
          },
          {
            "id": "94",
            "name": "Muradnagar",
            "bn_name": "মুরাদনগর",
            "lat": "23.677560778982752",
            "long": "90.94362404139162",
            "icon": "chattogram_cumilla_muradnagar.jpeg"
          },
          {
            "id": "95",
            "name": "Nangalkot",
            "bn_name": "নাঙ্গালকোট",
            "lat": "23.14013778400771",
            "long": "91.20929726383284",
            "icon": "chattogram_cumilla_nangalkot.jpeg"
          },
          {
            "id": "96",
            "name": "Comilla Sadar Dakshin",
            "bn_name": "কুমিল্লা সদর দক্ষিণ",
            "lat": "23.357961859543472",
            "long": "91.18334898564538",
            "icon": "chattogram_cumilla_comilla_sadar_dakshin.jpeg"
          },
          {
            "id": "97",
            "name": "Titas",
            "bn_name": "তিতাস",
            "lat": "23.58958957885223",
            "long": "90.7969927805513"
          }
        ],
        "icon": "chattogram_cumilla.jpeg"
      },
      {
        "id": "45",
        "name": "Cox's Bazar",
        "bn_name": "কক্স বাজার",
        "lat": "21.4272",
        "long": "92.0058",
        "subdistricts": [
          {
            "id": "98",
            "name": "Chakaria",
            "bn_name": "চকরিয়া",
            "lat": "21.740253640609744",
            "long": "92.05239426176897",
            "icon": "chattogram_cox_s_bazar_chakaria.jpeg"
          },
          {
            "id": "100",
            "name": "Cox's Bazar Sadar",
            "bn_name": "কক্স বাজার সদর",
            "lat": "21.505614150272873",
            "long": "92.0346550023245",
            "icon": "chattogram_cox_s_bazar_cox_s_bazar_sadar.jpeg"
          },
          {
            "id": "101",
            "name": "Kutubdia",
            "bn_name": "কুতুবদিয়া",
            "lat": "21.837983475656294",
            "long": "91.86255990014315",
            "icon": "chattogram_cox_s_bazar_kutubdia.jpeg"
          },
          {
            "id": "102",
            "name": "Maheshkhali",
            "bn_name": "মহেশখালী",
            "lat": "21.60901280297964",
            "long": "91.9210074032372",
            "icon": "chattogram_cox_s_bazar_maheshkhali.jpeg"
          },
          {
            "id": "103",
            "name": "Ramu",
            "bn_name": "রামু",
            "lat": "21.440754598460227",
            "long": "92.12102137683252",
            "icon": "chattogram_cox_s_bazar_ramu.jpeg"
          },
          {
            "id": "104",
            "name": "Teknaf",
            "bn_name": "টেকনাফ",
            "lat": "20.99223267572555",
            "long": "92.22361403239282",
            "icon": "chattogram_cox_s_bazar_teknaf.jpeg"
          },
          {
            "id": "105",
            "name": "Ukhia",
            "bn_name": "উখিয়া",
            "lat": "21.229302960822697",
            "long": "92.11593918747144",
            "icon": "chattogram_cox_s_bazar_ukhia.jpeg"
          },
          {
            "id": "106",
            "name": "Pekua",
            "bn_name": "পেকুয়া",
            "lat": "21.818175522037652",
            "long": "91.95278867629304",
            "icon": "chattogram_cox_s_bazar_pekua.jpeg"
          }
        ],
        "icon": "chattogram_cox_s_bazar.jpeg"
      },
      {
        "id": "46",
        "name": "Feni",
        "bn_name": "ফেনী",
        "lat": "23.0159",
        "long": "91.3976",
        "subdistricts": [
          {
            "id": "107",
            "name": "Feni Sadar",
            "bn_name": "ফেনী সদর",
            "lat": "22.98997805649812",
            "long": "91.41588281727051",
            "icon": "chattogram_feni_feni_sadar.jpeg"
          },
          {
            "id": "108",
            "name": "Chagalnaiya",
            "bn_name": "ছাগল নাইয়া",
            "lat": "23.016879418698352",
            "long": "91.50698628150256",
            "icon": "chattogram_feni_chagalnaiya.jpeg"
          },
          {
            "id": "109",
            "name": "Daganbhyan",
            "bn_name": "দাগানভিয়া",
            "lat": "22.97054876524873",
            "long": "91.29969929653464",
            "icon": "chattogram_feni_daganbhyan.jpeg"
          },
          {
            "id": "110",
            "name": "Parshuram",
            "bn_name": "পরশুরাম",
            "lat": "23.20137543413665",
            "long": "91.43969684474594",
            "icon": "chattogram_feni_parshuram.jpeg"
          },
          {
            "id": "111",
            "name": "Fhulgazi",
            "bn_name": "ফুলগাজি",
            "lat": "23.11798809968364",
            "long": "91.44250958021652",
            "icon": "chattogram_feni_fhulgazi.jpeg"
          },
          {
            "id": "112",
            "name": "Sonagazi",
            "bn_name": "সোনাগাজি",
            "lat": "22.861076966482244",
            "long": "91.3955411442383",
            "icon": "chattogram_feni_sonagazi.jpeg"
          }
        ],
        "icon": "chattogram_feni.jpeg"
      },
      {
        "id": "47",
        "name": "Khagrachari",
        "bn_name": "খাগড়াছড়ি",
        "lat": "23.119285",
        "long": "91.984663",
        "subdistricts": [
          {
            "id": "113",
            "name": "Dighinala",
            "bn_name": "দিঘিনালা ",
            "lat": "23.39934170012722",
            "long": "92.04985012342628",
            "icon": "chattogram_khagrachari_dighinala.jpeg"
          },
          {
            "id": "114",
            "name": "Khagrachhari",
            "bn_name": "খাগড়াছড়ি",
            "lat": "23.12833448066051",
            "long": "91.9860141827578",
            "icon": "chattogram_khagrachari_khagrachhari.jpeg"
          },
          {
            "id": "115",
            "name": "Lakshmichhari",
            "bn_name": "লক্ষ্মীছড়ি",
            "lat": "22.78495761464496",
            "long": "91.9290597910663",
            "icon": "chattogram_khagrachari_lakshmichhari.jpeg"
          },
          {
            "id": "116",
            "name": "Mahalchhari",
            "bn_name": "মহলছড়ি",
            "lat": "22.951477542879537",
            "long": "92.02339483138476",
            "icon": "chattogram_khagrachari_mahalchhari.jpeg"
          },
          {
            "id": "117",
            "name": "Manikchhari",
            "bn_name": "মানিকছড়ি",
            "lat": "22.841210444776557",
            "long": "91.81911068614885",
            "icon": "chattogram_khagrachari_manikchhari.jpeg"
          },
          {
            "id": "118",
            "name": "Matiranga",
            "bn_name": "মাটিরাঙ্গা",
            "lat": "23.104577548837263",
            "long": "91.85474372456046",
            "icon": "chattogram_khagrachari_matiranga.jpeg"
          },
          {
            "id": "119",
            "name": "Panchhari",
            "bn_name": "পানছড়ি",
            "lat": "23.31978077524569",
            "long": "91.91014851572628",
            "icon": "chattogram_khagrachari_panchhari.jpeg"
          },
          {
            "id": "120",
            "name": "Ramgarh",
            "bn_name": "রামগড়",
            "lat": "22.9349821962924",
            "long": "91.83119903344284",
            "icon": "chattogram_khagrachari_ramgarh.jpeg"
          }
        ],
        "icon": "chattogram_khagrachari.jpeg"
      },
      {
        "id": "48",
        "name": "Lakshmipur",
        "bn_name": "লক্ষ্মীপুর",
        "lat": "22.942477",
        "long": "90.841184",
        "subdistricts": [
          {
            "id": "121",
            "name": "Lakshmipur Sadar",
            "bn_name": "লক্ষ্মীপুর সদর",
            "lat": "22.921064906990104",
            "long": "90.86310421581396",
            "icon": "chattogram_lakshmipur_lakshmipur_sadar.jpeg"
          },
          {
            "id": "122",
            "name": "Raipur",
            "bn_name": "রায়পুর",
            "lat": "25.87847397987557",
            "long": "88.15483413655954",
            "icon": "chattogram_lakshmipur_raipur.jpeg"
          },
          {
            "id": "123",
            "name": "Ramganj",
            "bn_name": "রামগঞ্জ",
            "lat": "23.098933959168644",
            "long": "90.8725814601081",
            "icon": "chattogram_lakshmipur_ramganj.jpeg"
          },
          {
            "id": "124",
            "name": "Ramgati",
            "bn_name": "রামগতি",
            "lat": "22.64508886046884",
            "long": "90.9453520625962",
            "icon": "chattogram_lakshmipur_ramgati.jpeg"
          },
          {
            "id": "125",
            "name": "Komolnagar",
            "bn_name": "কমল নগর",
            "lat": "22.76753687958257",
            "long": "90.86531898972784",
            "icon": "chattogram_lakshmipur_komolnagar.jpeg"
          }
        ],
        "icon": "chattogram_lakshmipur.jpeg"
      },
      {
        "id": "49",
        "name": "Noakhali",
        "bn_name": "নোয়াখালী",
        "lat": "22.869563",
        "long": "91.099398",
        "subdistricts": [
          {
            "id": "126",
            "name": "Noakhali Sadar",
            "bn_name": "নোয়াখালী সদর",
            "lat": "22.80236375971813",
            "long": "91.06058344575324",
            "icon": "chattogram_noakhali_noakhali_sadar.jpeg"
          },
          {
            "id": "127",
            "name": "Begumganj",
            "bn_name": "বেগমগঞ্জ",
            "lat": "22.93063298770479",
            "long": "91.09526728385232",
            "icon": "chattogram_noakhali_begumganj.jpeg"
          },
          {
            "id": "128",
            "name": "Chatkhil",
            "bn_name": "চাটখিল",
            "lat": "23.053830096718904",
            "long": "90.9637905038306",
            "icon": "chattogram_noakhali_chatkhil.jpeg"
          },
          {
            "id": "129",
            "name": "Companyganj",
            "bn_name": "কোম্পানীগঞ্জ",
            "lat": "22.770130887606467",
            "long": "91.28199731825924",
            "icon": "chattogram_noakhali_companyganj.jpeg"
          },
          {
            "id": "130",
            "name": "Shenbag",
            "bn_name": "শেনবাগ",
            "lat": "22.99244808410927",
            "long": "91.21210343682056",
            "icon": "chattogram_noakhali_shenbag.jpeg"
          },
          {
            "id": "131",
            "name": "Hatia",
            "bn_name": "হাতিয়া",
            "lat": "22.309540270064225",
            "long": "91.09097529462797",
            "icon": "chattogram_noakhali_hatia.jpeg"
          },
          {
            "id": "132",
            "name": "Kobirhat",
            "bn_name": "কবিরহাট ",
            "lat": "22.813400556971285",
            "long": "91.19989939635656",
            "icon": "chattogram_noakhali_kobirhat.jpeg"
          },
          {
            "id": "133",
            "name": "Sonaimuri",
            "bn_name": "সোনাইমুরি",
            "lat": "23.026274769656418",
            "long": "91.07769958883938",
            "icon": "chattogram_noakhali_sonaimuri.jpeg"
          },
          {
            "id": "134",
            "name": "Subornochar",
            "bn_name": "সুবর্ণ চর ",
            "lat": "22.6201441276115",
            "long": "91.15152967121458",
            "icon": "chattogram_noakhali_subornochar.jpeg"
          }
        ],
        "icon": "chattogram_noakhali.jpeg"
      },
      {
        "id": "50",
        "name": "Rangamati",
        "bn_name": "রাঙ্গামাটি",
        "lat": "22.7324",
        "long": "92.2985",
        "subdistricts": [
          {
            "id": "135",
            "name": "Rangamati Sadar",
            "bn_name": "রাঙ্গামাটি সদর",
            "lat": "22.63660464838762",
            "long": "92.19887071691926",
            "icon": "chattogram_rangamati_rangamati_sadar.jpeg"
          },
          {
            "id": "136",
            "name": "Belai Chhari",
            "bn_name": "বেলাইছড়ি",
            "lat": "22.302595812169244",
            "long": "92.48526942320896",
            "icon": "chattogram_rangamati_belai_chhari.jpeg"
          },
          {
            "id": "137",
            "name": "Bagai Chhari",
            "bn_name": "বাঘাইছড়ি",
            "lat": "23.373095436683265",
            "long": "92.2294579286397",
            "icon": "chattogram_rangamati_bagai_chhari.jpeg"
          },
          {
            "id": "138",
            "name": "Barkal",
            "bn_name": "বরকল",
            "lat": "22.84530016537791",
            "long": "92.34460352884192",
            "icon": "chattogram_rangamati_barkal.jpeg"
          },
          {
            "id": "139",
            "name": "Jurai Chhari",
            "bn_name": "জুরাইছড়ি",
            "lat": "22.63088258580216",
            "long": "92.42251418271913",
            "icon": "chattogram_rangamati_jurai_chhari.jpeg"
          },
          {
            "id": "140",
            "name": "Rajasthali",
            "bn_name": "রাজাস্থলি",
            "lat": "22.378491227971953",
            "long": "92.24170233093288",
            "icon": "chattogram_rangamati_rajasthali.jpeg"
          },
          {
            "id": "141",
            "name": "Kaptai",
            "bn_name": "কাপ্তাই",
            "lat": "22.459803544590436",
            "long": "92.19350176560044",
            "icon": "chattogram_rangamati_kaptai.png"
          },
          {
            "id": "142",
            "name": "Langadu",
            "bn_name": "লাঙ্গাডু",
            "lat": "22.950581751952193",
            "long": "92.20883110606307",
            "icon": "chattogram_rangamati_langadu.jpeg"
          },
          {
            "id": "143",
            "name": "Nanner Char",
            "bn_name": "নান্নেরচর ",
            "lat": "22.82180361025542",
            "long": "92.06939030079454",
            "icon": "chattogram_rangamati_nanner_char.jpeg"
          },
          {
            "id": "144",
            "name": "Kaukhali",
            "bn_name": "কাউখালি",
            "lat": "23.740989287483167",
            "long": "89.47418063554636",
            "icon": "chattogram_rangamati_kaukhali.png"
          }
        ],
        "icon": "chattogram_rangamati.jpeg"
      }
    ],
    "icon": "chattogram.jpeg"
  },
  {
    "id": "3",
    "name": "Dhaka",
    "bn_name": "ঢাকা",
    "lat": "23.810332",
    "long": "90.412518",
    "districts": [
      {
        "id": "1",
        "name": "Dhaka",
        "bn_name": "ঢাকা",
        "lat": "23.7115253",
        "long": "90.4111451",
        "subdistricts": [
          {
            "id": "145",
            "name": "Dhamrai",
            "bn_name": "ধামরাই",
            "lat": "23.937070624166537",
            "long": "90.14147178624162",
            "icon": "dhaka_dhaka_dhamrai.jpeg"
          },
          {
            "id": "146",
            "name": "Dohar",
            "bn_name": "দোহার",
            "lat": "23.600876015254403",
            "long": "90.10934774143928",
            "icon": "dhaka_dhaka_dohar.jpeg"
          },
          {
            "id": "147",
            "name": "Keraniganj",
            "bn_name": "কেরানীগঞ্জ",
            "lat": "23.693474348505195",
            "long": "90.34425571091488",
            "icon": "dhaka_dhaka_keraniganj.jpeg"
          },
          {
            "id": "148",
            "name": "Nawabganj",
            "bn_name": "নবাবগঞ্জ",
            "lat": "23.673409837796672",
            "long": "90.16067480325049",
            "icon": "dhaka_dhaka_nawabganj.jpeg"
          },
          {
            "id": "149",
            "name": "Savar",
            "bn_name": "সাভার",
            "lat": "23.8810556978486",
            "long": "90.28076216479342",
            "icon": "dhaka_dhaka_savar.jpeg"
          }
        ],
        "icon": "dhaka_dhaka.jpeg"
      },
      {
        "id": "2",
        "name": "Faridpur",
        "bn_name": "ফরিদপুর",
        "lat": "23.6070822",
        "long": "89.8429406",
        "subdistricts": [
          {
            "id": "150",
            "name": "Faridpur Sadar",
            "bn_name": "ফরিদপুর সদর",
            "lat": "23.60472895199343",
            "long": "89.81650342402271",
            "icon": "dhaka_faridpur_faridpur_sadar.jpeg"
          },
          {
            "id": "151",
            "name": "Boalmari",
            "bn_name": "বোয়ালমারী",
            "lat": "23.404503199478935",
            "long": "89.69702255831595",
            "icon": "dhaka_faridpur_boalmari.jpeg"
          },
          {
            "id": "152",
            "name": "Alfadanga",
            "bn_name": "আলফাডাঙ্গা",
            "lat": "23.29692769038648",
            "long": "89.66983357587668",
            "icon": "dhaka_faridpur_alfadanga.jpeg"
          },
          {
            "id": "153",
            "name": "Madhukhali",
            "bn_name": "মধুখালি",
            "lat": "23.540926294599085",
            "long": "89.612044691789",
            "icon": "dhaka_faridpur_madhukhali.jpeg"
          },
          {
            "id": "154",
            "name": "Bhanga",
            "bn_name": "ভাঙ্গা",
            "lat": "23.386748709081555",
            "long": "90.00976252331459",
            "icon": "dhaka_faridpur_bhanga.jpeg"
          },
          {
            "id": "155",
            "name": "Nagarkanda",
            "bn_name": "নগরকান্ড",
            "lat": "23.437244396429335",
            "long": "89.89428163817331",
            "icon": "dhaka_faridpur_nagarkanda.jpeg"
          },
          {
            "id": "156",
            "name": "Char Bhadrasan",
            "bn_name": "চরভদ্রাসন ",
            "lat": "23.592494101789693",
            "long": "89.97803434467924",
            "icon": "dhaka_faridpur_char_bhadrasan.jpeg"
          },
          {
            "id": "157",
            "name": "Sadarpur",
            "bn_name": "সদরপুর",
            "lat": "23.495851552716193",
            "long": "90.05249950752155",
            "icon": "dhaka_faridpur_sadarpur.jpeg"
          },
          {
            "id": "158",
            "name": "Shaltha",
            "bn_name": "শালথা",
            "lat": "23.42003914582015",
            "long": "89.79964713351879",
            "icon": "dhaka_faridpur_shaltha.jpeg"
          }
        ],
        "icon": "dhaka_faridpur.jpeg"
      },
      {
        "id": "3",
        "name": "Gazipur",
        "bn_name": "গাজীপুর",
        "lat": "24.0022858",
        "long": "90.4264283",
        "subdistricts": [
          {
            "id": "159",
            "name": "Gazipur Sadar",
            "bn_name": "গাজীপুর সদর",
            "lat": "24.01408899334409",
            "long": "90.3962118116775",
            "icon": "dhaka_gazipur_gazipur_sadar.jpeg"
          },
          {
            "id": "160",
            "name": "Kaliakior",
            "bn_name": "কালিয়াকৈর",
            "lat": "24.103209005252904",
            "long": "90.2645982546062",
            "icon": "dhaka_gazipur_kaliakior.jpeg"
          },
          {
            "id": "161",
            "name": "Kapasia",
            "bn_name": "কাপাসিয়া",
            "lat": "24.14720056778908",
            "long": "90.59985704890111",
            "icon": "dhaka_gazipur_kapasia.jpeg"
          },
          {
            "id": "162",
            "name": "Sripur",
            "bn_name": "শ্রীপুর",
            "lat": "25.87847397987557",
            "long": "88.15483413655954",
            "icon": "dhaka_gazipur_sripur.jpeg"
          },
          {
            "id": "163",
            "name": "Kaliganj",
            "bn_name": "কালীগঞ্জ",
            "lat": "23.96426828908838",
            "long": "90.55492731090136",
            "icon": "dhaka_gazipur_kaliganj.jpeg"
          },
          {
            "id": "164",
            "name": "Tongi",
            "bn_name": "টঙ্গি",
            "lat": "22.92543407814549",
            "long": "89.90444152371086",
            "icon": "dhaka_gazipur_tongi.jpeg"
          }
        ],
        "icon": "dhaka_gazipur.jpeg"
      },
      {
        "id": "4",
        "name": "Gopalganj",
        "bn_name": "গোপালগঞ্জ",
        "lat": "23.0050857",
        "long": "89.8266059",
        "subdistricts": [
          {
            "id": "165",
            "name": "Gopalganj Sadar",
            "bn_name": "গোপালগঞ্জ সদর",
            "lat": "23.0603835476474",
            "long": "89.84879307992593",
            "icon": "dhaka_gopalganj_gopalganj_sadar.jpeg"
          },
          {
            "id": "166",
            "name": "Kashiani",
            "bn_name": "কাশিয়ানি",
            "lat": "23.19072359384537",
            "long": "89.79627085422781",
            "icon": "dhaka_gopalganj_kashiani.jpeg"
          },
          {
            "id": "167",
            "name": "Kotali Para",
            "bn_name": "কোটালিপাড়া",
            "lat": "23.011029727091383",
            "long": "90.02071492674128",
            "icon": "dhaka_gopalganj_kotali_para.jpeg"
          },
          {
            "id": "168",
            "name": "Muksudpur",
            "bn_name": "মুকসুদপুর",
            "lat": "23.266728222254898",
            "long": "89.91434411206309",
            "icon": "dhaka_gopalganj_muksudpur.jpeg"
          },
          {
            "id": "169",
            "name": "Tungi Para",
            "bn_name": "টুঙ্গিপাড়া",
            "lat": "22.92543407814549",
            "long": "89.90444152371086",
            "icon": "dhaka_gopalganj_tungi_para.jpeg"
          }
        ],
        "icon": "dhaka_gopalganj.jpeg"
      },
      {
        "id": "6",
        "name": "Kishoreganj",
        "bn_name": "কিশোরগঞ্জ",
        "lat": "24.444937",
        "long": "90.776575",
        "subdistricts": [
          {
            "id": "178",
            "name": "Astagram",
            "bn_name": "অষ্টগ্রাম",
            "lat": "24.323013041020644",
            "long": "91.1216133839162",
            "icon": "dhaka_kishoreganj_astagram.jpeg"
          },
          {
            "id": "179",
            "name": "Bajitpur",
            "bn_name": "বাজিতপুর",
            "lat": "24.224506205542244",
            "long": "90.95108337508344",
            "icon": "dhaka_kishoreganj_bajitpur.jpeg"
          },
          {
            "id": "180",
            "name": "Bhairab",
            "bn_name": "ভৈরব",
            "lat": "24.097387208396015",
            "long": "90.9815464787602",
            "icon": "dhaka_kishoreganj_bhairab.jpeg"
          },
          {
            "id": "181",
            "name": "Hossainpur",
            "bn_name": "হোসেনপুর ",
            "lat": "24.44881179424682",
            "long": "90.66284162202815",
            "icon": "dhaka_kishoreganj_hossainpur.png"
          },
          {
            "id": "182",
            "name": "Itna",
            "bn_name": "ইটনা",
            "lat": "24.54925632344848",
            "long": "91.08249286975196",
            "icon": "dhaka_kishoreganj_itna.jpeg"
          },
          {
            "id": "183",
            "name": "Karimganj",
            "bn_name": "করিমগঞ্জ",
            "lat": "24.451281487052245",
            "long": "90.89599013285776",
            "icon": "dhaka_kishoreganj_karimganj.jpeg"
          },
          {
            "id": "184",
            "name": "Katiadi",
            "bn_name": "কতিয়াদি",
            "lat": "24.291036090400787",
            "long": "90.8240325622276",
            "icon": "dhaka_kishoreganj_katiadi.jpeg"
          },
          {
            "id": "185",
            "name": "Kishoreganj Sadar",
            "bn_name": "কিশোরগঞ্জ সদর",
            "lat": "24.423779595458807",
            "long": "90.78334692378276",
            "icon": "dhaka_kishoreganj_kishoreganj_sadar.jpeg"
          },
          {
            "id": "186",
            "name": "Kuliar Char",
            "bn_name": "কুলিয়ারচর",
            "lat": "24.151891638654423",
            "long": "90.88811892710446",
            "icon": "dhaka_kishoreganj_kuliar_char.jpeg"
          },
          {
            "id": "187",
            "name": "Mithamain",
            "bn_name": "মিঠামাইন",
            "lat": "24.433104867050396",
            "long": "91.11053510179558",
            "icon": "dhaka_kishoreganj_mithamain.jpeg"
          },
          {
            "id": "188",
            "name": "Nikli",
            "bn_name": "নিকলি",
            "lat": "24.336786060915713",
            "long": "90.96311722657776",
            "icon": "dhaka_kishoreganj_nikli.jpeg"
          },
          {
            "id": "189",
            "name": "Pakundia",
            "bn_name": "পাকুন্ডা",
            "lat": "24.32068926800924",
            "long": "90.69268049993347",
            "icon": "dhaka_kishoreganj_pakundia.jpeg"
          },
          {
            "id": "190",
            "name": "Tarail",
            "bn_name": "তাড়াইল",
            "lat": "24.55017511948746",
            "long": "90.89074440235218",
            "icon": "dhaka_kishoreganj_tarail.jpeg"
          }
        ],
        "icon": "dhaka_kishoreganj.jpeg"
      },
      {
        "id": "7",
        "name": "Madaripur",
        "bn_name": "মাদারীপুর",
        "lat": "23.164102",
        "long": "90.1896805",
        "subdistricts": [
          {
            "id": "191",
            "name": "Madaripur Sadar",
            "bn_name": "মাদারীপুর সদর",
            "lat": "23.19377406093375",
            "long": "90.17484586501853",
            "icon": "dhaka_madaripur_madaripur_sadar.jpeg"
          },
          {
            "id": "192",
            "name": "Kalkini",
            "bn_name": "কালকিনি",
            "lat": "23.070906204480877",
            "long": "90.24833176497684",
            "icon": "dhaka_madaripur_kalkini.jpeg"
          },
          {
            "id": "193",
            "name": "Rajoir",
            "bn_name": "রাজইর",
            "lat": "23.20135316655353",
            "long": "90.0369515530057",
            "icon": "dhaka_madaripur_rajoir.jpeg"
          },
          {
            "id": "194",
            "name": "Shib Char",
            "bn_name": "শিবচর",
            "lat": "23.37544892328002",
            "long": "90.17423839240335",
            "icon": "dhaka_madaripur_shib_char.jpeg"
          }
        ],
        "icon": "dhaka_madaripur.jpeg"
      },
      {
        "id": "8",
        "name": "Manikganj",
        "bn_name": "মানিকগঞ্জ",
        "lat": "23.8644",
        "long": "90.0047",
        "subdistricts": [
          {
            "id": "195",
            "name": "Manikganj Sadar",
            "bn_name": "মানিকগঞ্জ সদর",
            "lat": "23.835845880467012",
            "long": "90.03052211884828",
            "icon": "dhaka_manikganj_manikganj_sadar.jpeg"
          },
          {
            "id": "196",
            "name": "Singair",
            "bn_name": "সিঙ্গাইর",
            "lat": "23.783309247381865",
            "long": "90.154347151956",
            "icon": "dhaka_manikganj_singair.jpeg"
          },
          {
            "id": "197",
            "name": "Shibalaya",
            "bn_name": "শিবালয়",
            "lat": "23.83830435818765",
            "long": "89.81014621531513",
            "icon": "dhaka_manikganj_shibalaya.jpeg"
          },
          {
            "id": "198",
            "name": "Saturia",
            "bn_name": "সাঠুরিয়া",
            "lat": "23.957540050767157",
            "long": "90.00164672810838",
            "icon": "dhaka_manikganj_saturia.jpeg"
          },
          {
            "id": "199",
            "name": "Harirampur",
            "bn_name": "হরিরামপুর",
            "lat": "23.72417937033599",
            "long": "89.94784960069906",
            "icon": "dhaka_manikganj_harirampur.jpeg"
          },
          {
            "id": "200",
            "name": "Ghior",
            "bn_name": "ঘিওর",
            "lat": "23.873351047016577",
            "long": "89.90443202699807",
            "icon": "dhaka_manikganj_ghior.jpeg"
          },
          {
            "id": "201",
            "name": "Daulatpur",
            "bn_name": "দৌলতপুর",
            "lat": "23.955740163696635",
            "long": "89.7976768983137",
            "icon": "dhaka_manikganj_daulatpur.jpeg"
          }
        ],
        "icon": "dhaka_manikganj.jpeg"
      },
      {
        "id": "9",
        "name": "Munshiganj",
        "bn_name": "মুন্সিগঞ্জ",
        "lat": "23.5422",
        "long": "90.5305",
        "subdistricts": [
          {
            "id": "202",
            "name": "Lohajang",
            "bn_name": "লোহাজং",
            "lat": "23.470581122446827",
            "long": "90.34135049328415",
            "icon": "dhaka_munshiganj_lohajang.jpeg"
          },
          {
            "id": "203",
            "name": "Sreenagar",
            "bn_name": "শ্রীনগর",
            "lat": "23.54693849848471",
            "long": "90.26322767391898",
            "icon": "dhaka_munshiganj_sreenagar.jpeg"
          },
          {
            "id": "204",
            "name": "Munshiganj Sadar",
            "bn_name": "মুন্সিগঞ্জ সদর",
            "lat": "23.48659231673161",
            "long": "90.52755974187232",
            "icon": "dhaka_munshiganj_munshiganj_sadar.jpeg"
          },
          {
            "id": "205",
            "name": "Sirajdikhan",
            "bn_name": "সিরাজদিখান",
            "lat": "23.597662700618137",
            "long": "90.35647622800516",
            "icon": "dhaka_munshiganj_sirajdikhan.jpeg"
          },
          {
            "id": "206",
            "name": "Tongibari",
            "bn_name": "টঙ্গিবাড়ি",
            "lat": "23.47601892113655",
            "long": "90.4526385766586",
            "icon": "dhaka_munshiganj_tongibari.jpeg"
          },
          {
            "id": "207",
            "name": "Gazaria",
            "bn_name": "গজারিয়া",
            "lat": "23.54720031086081",
            "long": "90.62973750686484",
            "icon": "dhaka_munshiganj_gazaria.jpeg"
          }
        ],
        "icon": "dhaka_munshiganj.jpeg"
      },
      {
        "id": "11",
        "name": "Narayanganj",
        "bn_name": "নারায়াণগঞ্জ",
        "lat": "23.63366",
        "long": "90.496482",
        "subdistricts": [
          {
            "id": "220",
            "name": "Araihazar",
            "bn_name": "আড়াইহাজার",
            "lat": "23.760912535949892",
            "long": "90.6687425691344",
            "icon": "dhaka_narayanganj_araihazar.jpeg"
          },
          {
            "id": "221",
            "name": "Sonargaon",
            "bn_name": "সোনারগাঁও",
            "lat": "23.675584264531164",
            "long": "90.59333378027983",
            "icon": "dhaka_narayanganj_sonargaon.jpeg"
          },
          {
            "id": "222",
            "name": "Bandar",
            "bn_name": "বান্দার",
            "lat": "23.63767599386981",
            "long": "90.53777500548446",
            "icon": "dhaka_narayanganj_bandar.jpeg"
          },
          {
            "id": "223",
            "name": "Naryanganj Sadar",
            "bn_name": "নারায়ানগঞ্জ সদর",
            "lat": "23.62748028717613",
            "long": "90.48106837617443",
            "icon": "dhaka_narayanganj_naryanganj_sadar.jpeg"
          },
          {
            "id": "224",
            "name": "Rupganj",
            "bn_name": "রূপগঞ্জ",
            "lat": "23.812722948147517",
            "long": "90.53878112943228",
            "icon": "dhaka_narayanganj_rupganj.jpeg"
          },
          {
            "id": "225",
            "name": "Siddhirganj",
            "bn_name": "সিদ্ধিরগঞ্জ",
            "lat": "23.69127",
            "long": "90.5149",
            "icon": "dhaka_narayanganj_siddhirganj.jpeg"
          }
        ],
        "icon": "dhaka_narayanganj.jpeg"
      },
      {
        "id": "12",
        "name": "Narsingdi",
        "bn_name": "নরসিংদী",
        "lat": "23.932233",
        "long": "90.71541",
        "subdistricts": [
          {
            "id": "226",
            "name": "Belabo",
            "bn_name": "বেলাবো",
            "lat": "24.09852256364516",
            "long": "90.84931916817165",
            "icon": "dhaka_narsingdi_belabo.jpeg"
          },
          {
            "id": "227",
            "name": "Monohardi",
            "bn_name": "মনোহরদি",
            "lat": "24.16077909492773",
            "long": "90.73048334308186",
            "icon": "dhaka_narsingdi_monohardi.jpeg"
          },
          {
            "id": "228",
            "name": "Narsingdi Sadar",
            "bn_name": "নরসিংদী সদর",
            "lat": "23.866572277112365",
            "long": "90.70809711008977",
            "icon": "dhaka_narsingdi_narsingdi_sadar.jpeg"
          },
          {
            "id": "229",
            "name": "Palash",
            "bn_name": "পলাশ",
            "lat": "23.95380402851379",
            "long": "90.64930212979152",
            "icon": "dhaka_narsingdi_palash.jpeg"
          },
          {
            "id": "230",
            "name": "Raipura",
            "bn_name": "রায়পুর",
            "lat": "23.960028929268027",
            "long": "90.87198074070557",
            "icon": "dhaka_narsingdi_raipura.jpeg"
          },
          {
            "id": "231",
            "name": "Shibpur",
            "bn_name": "শিবপুর",
            "lat": "24.02598010389121",
            "long": "90.74532778022784",
            "icon": "dhaka_narsingdi_shibpur.jpeg"
          }
        ],
        "icon": "dhaka_narsingdi.jpeg"
      },
      {
        "id": "14",
        "name": "Rajbari",
        "bn_name": "রাজবাড়ি",
        "lat": "23.7574305",
        "long": "89.6444665",
        "subdistricts": [
          {
            "id": "242",
            "name": "Baliakandi",
            "bn_name": "বালিয়াকান্দি",
            "lat": "26.10845618025055",
            "long": "88.26374443857033",
            "icon": "dhaka_rajbari_baliakandi.jpeg"
          },
          {
            "id": "243",
            "name": "Goalandaghat",
            "bn_name": "গোয়ালন্দ ঘাট",
            "lat": "23.756354426277383",
            "long": "89.76609628888036",
            "icon": "dhaka_rajbari_goalandaghat.jpeg"
          },
          {
            "id": "244",
            "name": "Pangsha",
            "bn_name": "পাংশা",
            "lat": "23.78791421453086",
            "long": "89.38681176342244",
            "icon": "dhaka_rajbari_pangsha.jpeg"
          },
          {
            "id": "245",
            "name": "Kalukhali",
            "bn_name": "কালুখালি",
            "lat": "23.740989287483167",
            "long": "89.47418063554636",
            "icon": "dhaka_rajbari_kalukhali.jpeg"
          },
          {
            "id": "246",
            "name": "Rajbari Sadar",
            "bn_name": "রাজবাড়ি সদর",
            "lat": "23.71747587340668",
            "long": "89.65409085937124",
            "icon": "dhaka_rajbari_rajbari_sadar.jpeg"
          }
        ],
        "icon": "dhaka_rajbari.jpeg"
      },
      {
        "id": "15",
        "name": "Shariatpur",
        "bn_name": "শরীয়তপুর",
        "lat": "23.2423",
        "long": "90.4348",
        "subdistricts": [
          {
            "id": "247",
            "name": "Shariatpur Sadar",
            "bn_name": "শরীয়তপুর সদর ",
            "lat": "23.216078192617655",
            "long": "90.31586848078648",
            "icon": "dhaka_shariatpur_shariatpur_sadar.jpeg"
          },
          {
            "id": "248",
            "name": "Damudya",
            "bn_name": "দামুদিয়া",
            "lat": "23.1368129725015",
            "long": "90.42165715853768",
            "icon": "dhaka_shariatpur_damudya.jpeg"
          },
          {
            "id": "249",
            "name": "Naria",
            "bn_name": "নড়িয়া",
            "lat": "23.304672658464547",
            "long": "90.42739927890794",
            "icon": "dhaka_shariatpur_naria.jpeg"
          },
          {
            "id": "250",
            "name": "Jajira",
            "bn_name": "জাজিরা",
            "lat": "23.365510216968996",
            "long": "90.3181841326792",
            "icon": "dhaka_shariatpur_jajira.jpeg"
          },
          {
            "id": "251",
            "name": "Bhedarganj",
            "bn_name": "ভেদারগঞ্জ",
            "lat": "23.238372264230023",
            "long": "90.5138998934035",
            "icon": "dhaka_shariatpur_bhedarganj.jpeg"
          },
          {
            "id": "252",
            "name": "Gosairhat",
            "bn_name": "গোসাইর হাট ",
            "lat": "23.07906148398486",
            "long": "90.44873165808932",
            "icon": "dhaka_shariatpur_gosairhat.jpeg"
          }
        ],
        "icon": "dhaka_shariatpur.jpeg"
      },
      {
        "id": "17",
        "name": "Tangail",
        "bn_name": "টাঙ্গাইল",
        "lat": "24.2513",
        "long": "89.9167",
        "subdistricts": [
          {
            "id": "258",
            "name": "Tangail Sadar",
            "bn_name": "টাঙ্গাইল সদর",
            "lat": "24.256419372235897",
            "long": "89.86612322941731",
            "icon": "dhaka_tangail_tangail_sadar.jpeg"
          },
          {
            "id": "259",
            "name": "Sakhipur",
            "bn_name": "সখিপুর",
            "lat": "24.306606159185034",
            "long": "90.17289089695336",
            "icon": "dhaka_tangail_sakhipur.jpeg"
          },
          {
            "id": "260",
            "name": "Basail",
            "bn_name": "বসাইল",
            "lat": "24.231148367148876",
            "long": "90.03940151715383",
            "icon": "dhaka_tangail_basail.jpeg"
          },
          {
            "id": "261",
            "name": "Madhupur",
            "bn_name": "মধুপুর",
            "lat": "24.65019177405244",
            "long": "90.06022787957917",
            "icon": "dhaka_tangail_madhupur.jpeg"
          },
          {
            "id": "262",
            "name": "Ghatail",
            "bn_name": "ঘাটাইল",
            "lat": "24.473505096109687",
            "long": "90.05157995321393",
            "icon": "dhaka_tangail_ghatail.jpeg"
          },
          {
            "id": "263",
            "name": "Kalihati",
            "bn_name": "কালিহাতি",
            "lat": "24.35999516789166",
            "long": "89.9448977820869",
            "icon": "dhaka_tangail_kalihati.jpeg"
          },
          {
            "id": "264",
            "name": "Nagarpur",
            "bn_name": "নগরপুর",
            "lat": "24.04770486694283",
            "long": "89.87411244978142",
            "icon": "dhaka_tangail_nagarpur.jpeg"
          },
          {
            "id": "265",
            "name": "Mirzapur",
            "bn_name": "মির্জাপুর",
            "lat": "24.115930389894885",
            "long": "90.10718555309316",
            "icon": "dhaka_tangail_mirzapur.jpeg"
          },
          {
            "id": "266",
            "name": "Gopalpur",
            "bn_name": "গোপালপুর",
            "lat": "24.572023051957007",
            "long": "89.90352973647819",
            "icon": "dhaka_tangail_gopalpur.jpeg"
          },
          {
            "id": "267",
            "name": "Delduar",
            "bn_name": "দেলদুয়ার",
            "lat": "24.142011403788427",
            "long": "89.93767667072987",
            "icon": "dhaka_tangail_delduar.jpeg"
          },
          {
            "id": "268",
            "name": "Bhuapur",
            "bn_name": "ভুয়াপুর",
            "lat": "24.47652907924243",
            "long": "89.81425051704298",
            "icon": "dhaka_tangail_bhuapur.jpeg"
          },
          {
            "id": "269",
            "name": "Dhanbari",
            "bn_name": "ধানবাড়ি",
            "lat": "24.68671865117444",
            "long": "89.93331719011596",
            "icon": "dhaka_tangail_dhanbari.jpeg"
          }
        ],
        "icon": "dhaka_tangail.jpeg"
      }
    ],
    "icon": "dhaka.jpeg"
  },
  {
    "id": "4",
    "name": "Khulna",
    "bn_name": "খুলনা",
    "lat": "22.845641",
    "long": "89.540328",
    "districts": [
      {
        "id": "55",
        "name": "Bagerhat",
        "bn_name": "বাগেরহাট",
        "lat": "22.651568",
        "long": "89.785938",
        "subdistricts": [
          {
            "id": "270",
            "name": "Bagerhat Sadar",
            "bn_name": "বাগেরহাট সদর",
            "lat": "22.67755278197227",
            "long": "89.76329376306899",
            "icon": "khulna_bagerhat_bagerhat_sadar.jpeg"
          },
          {
            "id": "271",
            "name": "Chitalmari",
            "bn_name": "চিতলমাড়ি",
            "lat": "22.81234361214883",
            "long": "89.86531040063541",
            "icon": "khulna_bagerhat_chitalmari.jpeg"
          },
          {
            "id": "272",
            "name": "Fakirhat",
            "bn_name": "ফকিরহাট",
            "lat": "22.742388181581095",
            "long": "89.66571321852274",
            "icon": "khulna_bagerhat_fakirhat.jpeg"
          },
          {
            "id": "273",
            "name": "Kachua",
            "bn_name": "কচুয়া",
            "lat": "23.362612289077",
            "long": "90.88169724983594",
            "icon": "khulna_bagerhat_kachua.jpeg"
          },
          {
            "id": "274",
            "name": "Mollahat",
            "bn_name": "মোল্লাহাট ",
            "lat": "22.882684553383605",
            "long": "89.77330485029685",
            "icon": "khulna_bagerhat_mollahat.jpeg"
          },
          {
            "id": "275",
            "name": "Mongla",
            "bn_name": "মংলা",
            "lat": "22.12705443874294",
            "long": "89.65444499406888",
            "icon": "khulna_bagerhat_mongla.jpeg"
          },
          {
            "id": "276",
            "name": "Morrelganj",
            "bn_name": "মরেলগঞ্জ",
            "lat": "22.483818028978167",
            "long": "89.83364662570987",
            "icon": "khulna_bagerhat_morrelganj.jpeg"
          },
          {
            "id": "277",
            "name": "Rampal",
            "bn_name": "রামপাল",
            "lat": "22.591352800703696",
            "long": "89.652183704213",
            "icon": "khulna_bagerhat_rampal.jpeg"
          },
          {
            "id": "278",
            "name": "Sarankhola",
            "bn_name": "স্মরণখোলা",
            "lat": "22.110547658427144",
            "long": "89.80815371454206",
            "icon": "khulna_bagerhat_sarankhola.jpeg"
          }
        ],
        "icon": "khulna_bagerhat.jpeg"
      },
      {
        "id": "56",
        "name": "Chuadanga",
        "bn_name": "চুয়াডাঙ্গা",
        "lat": "23.6401961",
        "long": "88.841841",
        "subdistricts": [
          {
            "id": "279",
            "name": "Damurhuda",
            "bn_name": "দামুরহুদা",
            "lat": "23.593196441960306",
            "long": "88.74047548628378",
            "icon": "khulna_chuadanga_damurhuda.jpeg"
          },
          {
            "id": "280",
            "name": "Chuadanga Sadar",
            "bn_name": "চুয়াডাঙ্গা সদর",
            "lat": "23.588755781420467",
            "long": "88.88458171994613",
            "icon": "khulna_chuadanga_chuadanga_sadar.jpeg"
          },
          {
            "id": "281",
            "name": "Jiban Nagar",
            "bn_name": "জীবন নগর ",
            "lat": "23.441080088608725",
            "long": "88.84919676532157",
            "icon": "khulna_chuadanga_jiban_nagar.jpeg"
          },
          {
            "id": "282",
            "name": "Alamdanga",
            "bn_name": "আলমডাঙ্গা",
            "lat": "23.729431955129847",
            "long": "88.90816701552754",
            "icon": "khulna_chuadanga_alamdanga.jpeg"
          }
        ],
        "icon": "khulna_chuadanga.jpeg"
      },
      {
        "id": "57",
        "name": "Jashore",
        "bn_name": "যশোর",
        "lat": "23.16643",
        "long": "89.2081126",
        "subdistricts": [
          {
            "id": "283",
            "name": "Abhaynagar",
            "bn_name": "অভয়নগর",
            "lat": "23.017605346155438",
            "long": "89.42057859019934",
            "icon": "khulna_jashore_abhaynagar.jpeg"
          },
          {
            "id": "284",
            "name": "Keshabpur",
            "bn_name": "কেশবপুর",
            "lat": "22.880116641076167",
            "long": "89.23163205889131",
            "icon": "khulna_jashore_keshabpur.jpeg"
          },
          {
            "id": "285",
            "name": "Bagher Para",
            "bn_name": "বাঘের পাড়া ",
            "lat": "23.24232533739001",
            "long": "89.33561301124656",
            "icon": "khulna_jashore_bagher_para.jpeg"
          },
          {
            "id": "286",
            "name": "Jessore Sadar",
            "bn_name": "যশোর সদর",
            "lat": "23.1477",
            "long": "89.1705",
            "icon": "khulna_jashore_jessore_sadar.jpeg"
          },
          {
            "id": "287",
            "name": "Chaugachha",
            "bn_name": "চৌগাছা",
            "lat": "23.26363766823088",
            "long": "89.02181494478356",
            "icon": "khulna_jashore_chaugachha.jpeg"
          },
          {
            "id": "288",
            "name": "Manirampur",
            "bn_name": "মনিরামপুর ",
            "lat": "23.006221448061748",
            "long": "89.22011435620752",
            "icon": "khulna_jashore_manirampur.jpeg"
          },
          {
            "id": "289",
            "name": "Jhikargachha",
            "bn_name": "ঝিকরগাছা",
            "lat": "23.068954844766164",
            "long": "89.05423627212254",
            "icon": "khulna_jashore_jhikargachha.jpeg"
          },
          {
            "id": "290",
            "name": "Sharsha",
            "bn_name": "সারশা",
            "lat": "23.04492744789497",
            "long": "88.94074580563192",
            "icon": "khulna_jashore_sharsha.jpeg"
          }
        ],
        "icon": "khulna_jashore.jpeg"
      },
      {
        "id": "58",
        "name": "Jhenaidah",
        "bn_name": "ঝিনাইদহ",
        "lat": "23.5448176",
        "long": "89.1539213",
        "subdistricts": [
          {
            "id": "291",
            "name": "Jhenaidah Sadar",
            "bn_name": "ঝিনাইদহ সদর",
            "lat": "23.516442554675727",
            "long": "89.15780319313568",
            "icon": "khulna_jhenaidah_jhenaidah_sadar.jpeg"
          },
          {
            "id": "292",
            "name": "Maheshpur",
            "bn_name": "মহেশপুর",
            "lat": "23.319679341454087",
            "long": "88.8578448980497",
            "icon": "khulna_jhenaidah_maheshpur.jpeg"
          },
          {
            "id": "293",
            "name": "Kaliganj",
            "bn_name": "কালীগঞ্জ",
            "lat": "23.96426828908838",
            "long": "90.55492731090136",
            "icon": "khulna_jhenaidah_kaliganj.jpeg"
          },
          {
            "id": "294",
            "name": "Kotchandpur",
            "bn_name": "কোট চাঁদপুর ",
            "lat": "23.44790780899291",
            "long": "88.99867730936109",
            "icon": "khulna_jhenaidah_kotchandpur.jpeg"
          },
          {
            "id": "295",
            "name": "Shailkupa",
            "bn_name": "শৈলকুপা",
            "lat": "23.66339161486551",
            "long": "89.24217184252812",
            "icon": "khulna_jhenaidah_shailkupa.jpeg"
          },
          {
            "id": "296",
            "name": "Harinakunda",
            "bn_name": "হাড়িনাকুন্দা",
            "lat": "23.642721960984588",
            "long": "89.07661162361927",
            "icon": "khulna_jhenaidah_harinakunda.jpeg"
          }
        ],
        "icon": "khulna_jhenaidah.jpeg"
      },
      {
        "id": "59",
        "name": "Khulna",
        "bn_name": "খুলনা",
        "lat": "22.815774",
        "long": "89.568679",
        "subdistricts": [
          {
            "id": "297",
            "name": "Terokhada",
            "bn_name": "তেরোখাদা",
            "lat": "22.91262234188033",
            "long": "89.6543495222399",
            "icon": "khulna_khulna_terokhada.jpeg"
          },
          {
            "id": "298",
            "name": "Batiaghata",
            "bn_name": "বাটিয়াঘাটা ",
            "lat": "22.71419925771245",
            "long": "89.51608667395487",
            "icon": "khulna_khulna_batiaghata.jpeg"
          },
          {
            "id": "299",
            "name": "Dacope",
            "bn_name": "ডাকপে",
            "lat": "22.388974619864964",
            "long": "89.51858219346337",
            "icon": "khulna_khulna_dacope.jpeg"
          },
          {
            "id": "300",
            "name": "Dumuria",
            "bn_name": "ডুমুরিয়া",
            "lat": "22.805388173945616",
            "long": "89.39802454664023",
            "icon": "khulna_khulna_dumuria.jpeg"
          },
          {
            "id": "301",
            "name": "Dighalia",
            "bn_name": "দিঘলিয়া",
            "lat": "22.925016899357864",
            "long": "89.56006614219987",
            "icon": "khulna_khulna_dighalia.jpeg"
          },
          {
            "id": "302",
            "name": "Koyra",
            "bn_name": "কয়ড়া",
            "lat": "22.145548165777196",
            "long": "89.38217953197257",
            "icon": "khulna_khulna_koyra.jpeg"
          },
          {
            "id": "303",
            "name": "Paikgachha",
            "bn_name": "পাইকগাছা",
            "lat": "22.59056028971039",
            "long": "89.34029427698624",
            "icon": "khulna_khulna_paikgachha.jpeg"
          },
          {
            "id": "304",
            "name": "Phultala",
            "bn_name": "ফুলতলা",
            "lat": "22.956601493368343",
            "long": "89.44185375706515",
            "icon": "khulna_khulna_phultala.jpeg"
          },
          {
            "id": "305",
            "name": "Rupsa",
            "bn_name": "রূপসা",
            "lat": "22.82009389665121",
            "long": "89.6361593510604",
            "icon": "khulna_khulna_rupsa.jpeg"
          }
        ],
        "icon": "khulna_khulna.jpeg"
      },
      {
        "id": "60",
        "name": "Kushtia",
        "bn_name": "কুষ্টিয়া",
        "lat": "23.901258",
        "long": "89.120482",
        "subdistricts": [
          {
            "id": "306",
            "name": "Kushtia Sadar",
            "bn_name": "কুষ্টিয়া সদর",
            "lat": "23.822257984510568",
            "long": "89.08963001273638",
            "icon": "khulna_kushtia_kushtia_sadar.jpeg"
          },
          {
            "id": "307",
            "name": "Kumarkhali",
            "bn_name": "কুমারখালি",
            "lat": "23.856677897090613",
            "long": "89.2095364787343",
            "icon": "khulna_kushtia_kumarkhali.jpeg"
          },
          {
            "id": "308",
            "name": "Daulatpur",
            "bn_name": "দৌলতপুর",
            "lat": "23.955740163696635",
            "long": "89.7976768983137",
            "icon": "khulna_kushtia_daulatpur.jpeg"
          },
          {
            "id": "309",
            "name": "Mirpur",
            "bn_name": "মিরপুর",
            "lat": "23.794160141847915",
            "long": "90.36175598353476",
            "icon": "khulna_kushtia_mirpur.jpeg"
          },
          {
            "id": "310",
            "name": "Bheramara",
            "bn_name": "ভেরামারা",
            "lat": "24.05688729327924",
            "long": "88.9816376212086",
            "icon": "khulna_kushtia_bheramara.jpeg"
          },
          {
            "id": "311",
            "name": "Khoksa",
            "bn_name": "খোকসা",
            "lat": "23.80872815795061",
            "long": "89.29972897636739",
            "icon": "khulna_kushtia_khoksa.jpeg"
          }
        ],
        "icon": "khulna_kushtia.jpeg"
      },
      {
        "id": "61",
        "name": "Magura",
        "bn_name": "মাগুরা",
        "lat": "23.487337",
        "long": "89.419956",
        "subdistricts": [
          {
            "id": "312",
            "name": "Magura Sadar",
            "bn_name": "মাগুরা সদর",
            "lat": "23.451860584653332",
            "long": "89.41300848059075",
            "icon": "khulna_magura_magura_sadar.jpeg"
          },
          {
            "id": "313",
            "name": "Mohammadpur",
            "bn_name": "মোহাম্মাদপুর",
            "lat": "23.758630862326292",
            "long": "90.35669297533416",
            "icon": "khulna_magura_mohammadpur.jpeg"
          },
          {
            "id": "314",
            "name": "Shalikha",
            "bn_name": "শালিখা",
            "lat": "23.34811307976023",
            "long": "89.35850965594608",
            "icon": "khulna_magura_shalikha.jpeg"
          },
          {
            "id": "315",
            "name": "Sreepur",
            "bn_name": "শ্রীপুর",
            "lat": "24.205199936068237",
            "long": "90.44309426234136",
            "icon": "khulna_magura_sreepur.jpeg"
          }
        ],
        "icon": "khulna_magura.jpeg"
      },
      {
        "id": "62",
        "name": "Meherpur",
        "bn_name": "মেহেরপুর",
        "lat": "23.762213",
        "long": "88.631821",
        "subdistricts": [
          {
            "id": "316",
            "name": "angni",
            "bn_name": "আংনি",
            "lat": "23.857734901916412",
            "long": "88.7711856423105"
          },
          {
            "id": "317",
            "name": "Mujib Nagar",
            "bn_name": "মুজিব নগর",
            "lat": "23.66837762408543",
            "long": "88.6213868937749",
            "icon": "khulna_meherpur_mujib_nagar.jpeg"
          },
          {
            "id": "318",
            "name": "Meherpur Sadar",
            "bn_name": "মেহেরপুর সদর",
            "lat": "23.76629978747562",
            "long": "88.66110476795255",
            "icon": "khulna_meherpur_meherpur_sadar.jpeg"
          }
        ],
        "icon": "khulna_meherpur.jpeg"
      },
      {
        "id": "63",
        "name": "Narail",
        "bn_name": "নড়াইল",
        "lat": "23.172534",
        "long": "89.512672",
        "subdistricts": [
          {
            "id": "319",
            "name": "Narail Sadar",
            "bn_name": "নড়াইল সদর",
            "lat": "23.15455400962499",
            "long": "89.49488931505681",
            "icon": "khulna_narail_narail_sadar.jpeg"
          },
          {
            "id": "320",
            "name": "Lohagara",
            "bn_name": "লোহাগাড়া",
            "lat": "21.986215905087235",
            "long": "92.11112248149234",
            "icon": "khulna_narail_lohagara.jpeg"
          },
          {
            "id": "321",
            "name": "Kalia",
            "bn_name": "কালিয়া",
            "lat": "23.02796607444216",
            "long": "89.64408188203639",
            "icon": "khulna_narail_kalia.jpeg"
          }
        ],
        "icon": "khulna_narail.jpeg"
      },
      {
        "id": "64",
        "name": "Satkhira",
        "bn_name": "সাতক্ষীরা",
        "lat": "22.7185",
        "long": "89.0705",
        "subdistricts": [
          {
            "id": "322",
            "name": "Satkhira Sadar",
            "bn_name": "সাতক্ষীরা সদর",
            "lat": "22.72093772470892",
            "long": "89.03863765183401",
            "icon": "khulna_satkhira_satkhira_sadar.jpeg"
          },
          {
            "id": "323",
            "name": "Assasuni",
            "bn_name": "আসসাশুনি ",
            "lat": "22.519165829885004",
            "long": "89.18739059025815",
            "icon": "khulna_satkhira_assasuni.jpeg"
          },
          {
            "id": "324",
            "name": "Debhata",
            "bn_name": "দেভাটা",
            "lat": "22.59733354138761",
            "long": "89.01526611773136",
            "icon": "khulna_satkhira_debhata.jpeg"
          },
          {
            "id": "325",
            "name": "Tala",
            "bn_name": "তালা",
            "lat": "22.740026209262915",
            "long": "89.2105850886146",
            "icon": "khulna_satkhira_tala.jpeg"
          },
          {
            "id": "326",
            "name": "Kalaroa",
            "bn_name": "কলরোয়া",
            "lat": "22.88072196888556",
            "long": "89.03023537005893",
            "icon": "khulna_satkhira_kalaroa.jpeg"
          },
          {
            "id": "327",
            "name": "Kaliganj",
            "bn_name": "কালীগঞ্জ",
            "lat": "23.96426828908838",
            "long": "90.55492731090136",
            "icon": "khulna_satkhira_kaliganj.jpeg"
          },
          {
            "id": "328",
            "name": "Shyamnagar",
            "bn_name": "শ্যামনগর",
            "lat": "22.06900706059894",
            "long": "89.17925298919302",
            "icon": "khulna_satkhira_shyamnagar.jpeg"
          }
        ],
        "icon": "khulna_satkhira.jpeg"
      }
    ],
    "icon": "khulna.jpeg"
  },
  {
    "id": "5",
    "name": "Rajshahi",
    "bn_name": "রাজশাহী",
    "lat": "24.363589",
    "long": "88.624135",
    "districts": [
      {
        "id": "18",
        "name": "Bogura",
        "bn_name": "বগুড়া",
        "lat": "24.8465228",
        "long": "89.377755",
        "subdistricts": [
          {
            "id": "329",
            "name": "Adamdighi",
            "bn_name": "আদমদিঘী",
            "lat": "24.79924085609132",
            "long": "89.05945382380858",
            "icon": "rajshahi_bogura_adamdighi.jpeg"
          },
          {
            "id": "330",
            "name": "Bogra Sadar",
            "bn_name": "বগুড়া সদর",
            "lat": "24.895550856798877",
            "long": "89.3556889557271",
            "icon": "rajshahi_bogura_bogra_sadar.jpeg"
          },
          {
            "id": "331",
            "name": "Sherpur",
            "bn_name": "শেরপুর",
            "lat": "24.629108955666013",
            "long": "89.42237488228362",
            "icon": "rajshahi_bogura_sherpur.jpeg"
          },
          {
            "id": "332",
            "name": "Dhunat",
            "bn_name": "ধুনট",
            "lat": "24.68254894339344",
            "long": "89.55032509053927",
            "icon": "rajshahi_bogura_dhunat.jpeg"
          },
          {
            "id": "333",
            "name": "Dhupchanchia",
            "bn_name": "দুপচাচিয়া",
            "lat": "24.88369536402182",
            "long": "89.13913034057335",
            "icon": "rajshahi_bogura_dhupchanchia.jpeg"
          },
          {
            "id": "334",
            "name": "Gabtali",
            "bn_name": "গাবতলি",
            "lat": "24.886791068687995",
            "long": "89.4649684933579",
            "icon": "rajshahi_bogura_gabtali.jpeg"
          },
          {
            "id": "335",
            "name": "Kahaloo",
            "bn_name": "কাহালু",
            "lat": "24.832266542740328",
            "long": "89.25048855524098",
            "icon": "rajshahi_bogura_kahaloo.jpeg"
          },
          {
            "id": "336",
            "name": "Nandigram",
            "bn_name": "নন্দিগ্রাম",
            "lat": "24.681282860513335",
            "long": "89.22677559843632",
            "icon": "rajshahi_bogura_nandigram.jpeg"
          },
          {
            "id": "337",
            "name": "Sahajanpur",
            "bn_name": "শাহজাহানপুর",
            "lat": "24.758884",
            "long": "89.396755",
            "icon": "rajshahi_bogura_sahajanpur.jpeg"
          },
          {
            "id": "338",
            "name": "Sariakandi",
            "bn_name": "সারিয়াকান্দি",
            "lat": "24.88116175275977",
            "long": "89.61400140636216",
            "icon": "rajshahi_bogura_sariakandi.jpeg"
          },
          {
            "id": "339",
            "name": "Shibganj",
            "bn_name": "শিবগঞ্জ",
            "lat": "25.016492200302288",
            "long": "89.30672772266279",
            "icon": "rajshahi_bogura_shibganj.jpeg"
          },
          {
            "id": "340",
            "name": "Sonatala",
            "bn_name": "সোনাতলা",
            "lat": "24.99697577926159",
            "long": "89.51400449669705",
            "icon": "rajshahi_bogura_sonatala.jpeg"
          }
        ],
        "icon": "rajshahi_bogura.jpeg"
      },
      {
        "id": "19",
        "name": "Joypurhat",
        "bn_name": "জয়পুরহাট",
        "lat": "25.0968",
        "long": "89.0227",
        "subdistricts": [
          {
            "id": "341",
            "name": "Joypurhat Sadar",
            "bn_name": "জয়পুরহাট সদর",
            "lat": "25.105610199294436",
            "long": "89.0199654553647",
            "icon": "rajshahi_joypurhat_joypurhat_sadar.jpeg"
          },
          {
            "id": "342",
            "name": "Akkelpur",
            "bn_name": "আক্কেলপুর",
            "lat": "24.93405599788977",
            "long": "89.04192638074306",
            "icon": "rajshahi_joypurhat_akkelpur.jpeg"
          },
          {
            "id": "343",
            "name": "Kalai",
            "bn_name": "কালাই",
            "lat": "25.07781489091221",
            "long": "89.19780156314631",
            "icon": "rajshahi_joypurhat_kalai.jpeg"
          },
          {
            "id": "344",
            "name": "Khetlal",
            "bn_name": "খেতলাল",
            "lat": "25.022395231286115",
            "long": "89.11805172593894",
            "icon": "rajshahi_joypurhat_khetlal.jpeg"
          },
          {
            "id": "345",
            "name": "Panchbibi",
            "bn_name": "পাঁচবিবি",
            "lat": "25.202167677927715",
            "long": "89.07029888505402",
            "icon": "rajshahi_joypurhat_panchbibi.jpeg"
          }
        ],
        "icon": "rajshahi_joypurhat.jpeg"
      },
      {
        "id": "20",
        "name": "Naogaon",
        "bn_name": "নওগাঁ",
        "lat": "24.7936",
        "long": "88.9318",
        "subdistricts": [
          {
            "id": "346",
            "name": "Naogaon Sadar",
            "bn_name": "নওগাঁ সদর",
            "lat": "24.811059525854247",
            "long": "88.89817912760627",
            "icon": "rajshahi_naogaon_naogaon_sadar.png"
          },
          {
            "id": "347",
            "name": "Mohadevpur",
            "bn_name": "মহাদেবপুর",
            "lat": "24.919923572817233",
            "long": "88.76474897866437",
            "icon": "rajshahi_naogaon_mohadevpur.jpeg"
          },
          {
            "id": "348",
            "name": "Manda",
            "bn_name": "মান্দা",
            "lat": "24.74434348325109",
            "long": "88.71298799949498",
            "icon": "rajshahi_naogaon_manda.jpeg"
          },
          {
            "id": "349",
            "name": "Niamatpur",
            "bn_name": "নিয়ামতপুর",
            "lat": "24.82844726157177",
            "long": "88.55151999075122",
            "icon": "rajshahi_naogaon_niamatpur.jpeg"
          },
          {
            "id": "350",
            "name": "Atrai",
            "bn_name": "আত্রাই",
            "lat": "24.625235075653244",
            "long": "88.98785782569375",
            "icon": "rajshahi_naogaon_atrai.jpeg"
          },
          {
            "id": "351",
            "name": "Raninagar",
            "bn_name": "রাণীনগর",
            "lat": "24.71075613451132",
            "long": "89.02184161305028",
            "icon": "rajshahi_naogaon_raninagar.jpeg"
          },
          {
            "id": "352",
            "name": "Patnitala",
            "bn_name": "পত্নীতলা",
            "lat": "25.075394331541947",
            "long": "88.71647813529445",
            "icon": "rajshahi_naogaon_patnitala.png"
          },
          {
            "id": "353",
            "name": "Dhamoirhat",
            "bn_name": "ধামইরহাট ",
            "lat": "25.1304089050925",
            "long": "88.822926932774",
            "icon": "rajshahi_naogaon_dhamoirhat.jpeg"
          },
          {
            "id": "354",
            "name": "Sapahar",
            "bn_name": "সাপাহার",
            "lat": "25.118159428926717",
            "long": "88.53024137586057",
            "icon": "rajshahi_naogaon_sapahar.jpeg"
          },
          {
            "id": "355",
            "name": "Porsha",
            "bn_name": "পোরশা",
            "lat": "24.992202395964338",
            "long": "88.51768257899184",
            "icon": "rajshahi_naogaon_porsha.jpeg"
          },
          {
            "id": "356",
            "name": "Badalgachhi",
            "bn_name": "বদলগাছি",
            "lat": "24.96586707124781",
            "long": "88.94342506460161",
            "icon": "rajshahi_naogaon_badalgachhi.jpeg"
          }
        ],
        "icon": "rajshahi_naogaon.jpeg"
      },
      {
        "id": "21",
        "name": "Natore",
        "bn_name": "নাটোর",
        "lat": "24.420556",
        "long": "89.000282",
        "subdistricts": [
          {
            "id": "357",
            "name": "Natore Sadar",
            "bn_name": "নাটোর সদর",
            "lat": "24.443300576244365",
            "long": "88.9840454749553",
            "icon": "rajshahi_natore_natore_sadar.jpeg"
          },
          {
            "id": "358",
            "name": "Baraigram",
            "bn_name": "বড়াইগ্রাম",
            "lat": "24.27369476551761",
            "long": "89.14767986015724",
            "icon": "rajshahi_natore_baraigram.jpeg"
          },
          {
            "id": "359",
            "name": "Bagati Para",
            "bn_name": "বাগাতিপাড়া",
            "lat": "24.312241113196812",
            "long": "88.94674725372187",
            "icon": "rajshahi_natore_bagati_para.jpeg"
          },
          {
            "id": "360",
            "name": "Lalpur",
            "bn_name": "লালপুর",
            "lat": "24.19839731717087",
            "long": "88.98495348436235",
            "icon": "rajshahi_natore_lalpur.jpeg"
          },
          {
            "id": "361",
            "name": "Natore Sadar",
            "bn_name": "নাটোর সদর",
            "lat": "24.443300576244365",
            "long": "88.9840454749553",
            "icon": "rajshahi_natore_natore_sadar.jpeg"
          },
          {
            "id": "362",
            "name": "Baraigram",
            "bn_name": "বড়াই গ্রাম",
            "lat": "24.27369476551761",
            "long": "89.14767986015724",
            "icon": "rajshahi_natore_baraigram.jpeg"
          }
        ],
        "icon": "rajshahi_natore.jpeg"
      },
      {
        "id": "22",
        "name": "Chapainawabganj",
        "bn_name": "চাঁপাইনবাবগঞ্জ",
        "lat": "24.5965034",
        "long": "88.2775122",
        "subdistricts": [
          {
            "id": "363",
            "name": "Bholahat",
            "bn_name": "ভোলাহাট",
            "lat": "24.89623796132175",
            "long": "88.20969918804246",
            "icon": "rajshahi_chapainawabganj_bholahat.jpeg"
          },
          {
            "id": "364",
            "name": "Gomastapur",
            "bn_name": "গোমস্তাপুর",
            "lat": "24.856947971340816",
            "long": "88.3550517835931",
            "icon": "rajshahi_chapainawabganj_gomastapur.jpeg"
          },
          {
            "id": "365",
            "name": "Nachole",
            "bn_name": "নাচোল",
            "lat": "24.72678363365826",
            "long": "88.39644577928429",
            "icon": "rajshahi_chapainawabganj_nachole.jpeg"
          },
          {
            "id": "366",
            "name": "Nawabganj Sadar",
            "bn_name": "নবাবগঞ্জ সদর",
            "lat": "25.420450175212338",
            "long": "89.0916707181022",
            "icon": "rajshahi_chapainawabganj_nawabganj_sadar.jpeg"
          },
          {
            "id": "367",
            "name": "Shibganj",
            "bn_name": "শিবগঞ্জ",
            "lat": "25.016492200302288",
            "long": "89.30672772266279",
            "icon": "rajshahi_chapainawabganj_shibganj.jpeg"
          }
        ],
        "icon": "rajshahi_chapainawabganj.jpeg"
      },
      {
        "id": "23",
        "name": "Pabna",
        "bn_name": "পাবনা",
        "lat": "23.998524",
        "long": "89.233645",
        "subdistricts": [
          {
            "id": "368",
            "name": "Atgharia",
            "bn_name": "আটঘরিয়া",
            "lat": "24.108248043029064",
            "long": "89.28197229209275",
            "icon": "rajshahi_pabna_atgharia.jpeg"
          },
          {
            "id": "369",
            "name": "Bera",
            "bn_name": "বেড়া",
            "lat": "23.94230208119762",
            "long": "89.65599823141825",
            "icon": "rajshahi_pabna_bera.jpeg"
          },
          {
            "id": "370",
            "name": "Bhangura",
            "bn_name": "ভাঙ্গুরা",
            "lat": "24.239265739607013",
            "long": "89.392729078321",
            "icon": "rajshahi_pabna_bhangura.jpeg"
          },
          {
            "id": "371",
            "name": "Chatmohar",
            "bn_name": "চাটমোহর",
            "lat": "24.22509942714334",
            "long": "89.30203762741354",
            "icon": "rajshahi_pabna_chatmohar.jpeg"
          },
          {
            "id": "372",
            "name": "Faridpur",
            "bn_name": "ফরিদপুর",
            "lat": "24.16066932161196",
            "long": "89.4488710908385",
            "icon": "rajshahi_pabna_faridpur.jpeg"
          },
          {
            "id": "373",
            "name": "Ishwardi",
            "bn_name": "ঈশ্বরদী",
            "lat": "24.07780974860211",
            "long": "89.09726049147716",
            "icon": "rajshahi_pabna_ishwardi.jpeg"
          },
          {
            "id": "374",
            "name": "Pabna Sadar",
            "bn_name": "পাবনা সদর",
            "lat": "23.993678063179193",
            "long": "89.28149543770338",
            "icon": "rajshahi_pabna_pabna_sadar.jpeg"
          },
          {
            "id": "375",
            "name": "Santhia",
            "bn_name": "সাথিয়া",
            "lat": "24.042199043393783",
            "long": "89.51681780141998",
            "icon": "rajshahi_pabna_santhia.jpeg"
          },
          {
            "id": "376",
            "name": "Sujanagar",
            "bn_name": "সুজানগর",
            "lat": "23.89666981460425",
            "long": "89.5127314797295",
            "icon": "rajshahi_pabna_sujanagar.jpeg"
          }
        ],
        "icon": "rajshahi_pabna.jpeg"
      },
      {
        "id": "24",
        "name": "Rajshahi",
        "bn_name": "রাজশাহী",
        "lat": "24.3745",
        "long": "88.6042",
        "subdistricts": [
          {
            "id": "377",
            "name": "Bagha",
            "bn_name": "বাঘা",
            "lat": "24.200470824588464",
            "long": "88.82838645721876",
            "icon": "rajshahi_rajshahi_bagha.jpeg"
          },
          {
            "id": "378",
            "name": "Bagmara",
            "bn_name": "বাগমারা",
            "lat": "24.5910996780414",
            "long": "88.8107618747227",
            "icon": "rajshahi_rajshahi_bagmara.jpeg"
          },
          {
            "id": "379",
            "name": "Charghat",
            "bn_name": "চারঘাট",
            "lat": "24.300087556494308",
            "long": "88.77537049033916",
            "icon": "rajshahi_rajshahi_charghat.jpeg"
          },
          {
            "id": "380",
            "name": "Durgapur",
            "bn_name": "দুর্গাপুর",
            "lat": "25.089631018889943",
            "long": "90.68207305086096",
            "icon": "rajshahi_rajshahi_durgapur.jpeg"
          },
          {
            "id": "381",
            "name": "Godagari",
            "bn_name": "গোদাগারি",
            "lat": "24.483462237204183",
            "long": "88.41471694546158",
            "icon": "rajshahi_rajshahi_godagari.jpeg"
          },
          {
            "id": "382",
            "name": "Mohanpur",
            "bn_name": "মোহনপুর",
            "lat": "24.55361137688097",
            "long": "88.64033494558963",
            "icon": "rajshahi_rajshahi_mohanpur.png"
          },
          {
            "id": "383",
            "name": "Paba",
            "bn_name": "পবা",
            "lat": "24.405660084440587",
            "long": "88.599447432751",
            "icon": "rajshahi_rajshahi_paba.jpeg"
          },
          {
            "id": "384",
            "name": "Puthia",
            "bn_name": "পুঠিয়া",
            "lat": "24.41098420839683",
            "long": "88.82735003447485",
            "icon": "rajshahi_rajshahi_puthia.jpeg"
          },
          {
            "id": "385",
            "name": "Tanore",
            "bn_name": "তানোর",
            "lat": "24.62025178252328",
            "long": "88.53108281655149",
            "icon": "rajshahi_rajshahi_tanore.jpeg"
          }
        ],
        "icon": "rajshahi_rajshahi.jpeg"
      },
      {
        "id": "25",
        "name": "Sirajgonj",
        "bn_name": "সিরাজগঞ্জ",
        "lat": "24.4533978",
        "long": "89.7006815",
        "subdistricts": [
          {
            "id": "386",
            "name": "Sirajganj Sadar",
            "bn_name": "সিরাজগঞ্জ সদর",
            "lat": "24.494130310518628",
            "long": "89.68847208320913",
            "icon": "rajshahi_sirajgonj_sirajganj_sadar.jpeg"
          },
          {
            "id": "387",
            "name": "Belkuchi",
            "bn_name": "বেলকুচি",
            "lat": "24.295167726521264",
            "long": "89.70209131385283",
            "icon": "rajshahi_sirajgonj_belkuchi.jpeg"
          },
          {
            "id": "388",
            "name": "Chauhali",
            "bn_name": "চৌহালি",
            "lat": "24.13616630247109",
            "long": "89.7566376469539",
            "icon": "rajshahi_sirajgonj_chauhali.jpeg"
          },
          {
            "id": "389",
            "name": "Kamarkhanda",
            "bn_name": "কামারখান্দা",
            "lat": "24.375003699931085",
            "long": "89.64354718231843",
            "icon": "rajshahi_sirajgonj_kamarkhanda.jpeg"
          },
          {
            "id": "390",
            "name": "Kazipur",
            "bn_name": "কাজীপুর",
            "lat": "24.670222522857323",
            "long": "89.68730306065254",
            "icon": "rajshahi_sirajgonj_kazipur.jpeg"
          },
          {
            "id": "391",
            "name": "Raiganj",
            "bn_name": "রায়গঞ্জ",
            "lat": "23.098933959168644",
            "long": "90.8725814601081",
            "icon": "rajshahi_sirajgonj_raiganj.jpeg"
          },
          {
            "id": "392",
            "name": "Shahjadpur",
            "bn_name": "শাহজাদপুর",
            "lat": "24.16278231814884",
            "long": "89.63009881731487",
            "icon": "rajshahi_sirajgonj_shahjadpur.jpeg"
          },
          {
            "id": "393",
            "name": "Tarash",
            "bn_name": "তারাশ",
            "lat": "24.443172281336953",
            "long": "89.35812585163076",
            "icon": "rajshahi_sirajgonj_tarash.jpeg"
          },
          {
            "id": "394",
            "name": "Ullah Para",
            "bn_name": "উল্লাপাড়া",
            "lat": "24.327353389905852",
            "long": "89.51808878978696",
            "icon": "rajshahi_sirajgonj_ullah_para.jpeg"
          }
        ],
        "icon": "rajshahi_sirajgonj.jpeg"
      }
    ],
    "icon": "rajshahi.jpeg"
  },
  {
    "id": "6",
    "name": "Rangpur",
    "bn_name": "রংপুর",
    "lat": "25.743892",
    "long": "89.275227",
    "districts": [
      {
        "id": "26",
        "name": "Dinajpur",
        "bn_name": "দিনাজপুর",
        "lat": "25.6217061",
        "long": "88.6354504",
        "subdistricts": [
          {
            "id": "395",
            "name": "Birampur",
            "bn_name": "বিরামপুর",
            "lat": "25.379086798452416",
            "long": "88.96357599930768",
            "icon": "rangpur_dinajpur_birampur.jpeg"
          },
          {
            "id": "396",
            "name": "Birganj",
            "bn_name": "বীরগঞ্জ",
            "lat": "25.92795722979402",
            "long": "88.62668456482103",
            "icon": "rangpur_dinajpur_birganj.jpeg"
          },
          {
            "id": "397",
            "name": "Biral",
            "bn_name": "বিড়াল",
            "lat": "25.646767587647",
            "long": "88.54762922908381"
          },
          {
            "id": "398",
            "name": "Bochaganj",
            "bn_name": "বোচাগঞ্জ",
            "lat": "25.785861469755677",
            "long": "88.45352955393409",
            "icon": "rangpur_dinajpur_bochaganj.jpeg"
          },
          {
            "id": "399",
            "name": "Chirirbandar",
            "bn_name": "চিরিরবন্দর",
            "lat": "25.665388699038107",
            "long": "88.78638767411034",
            "icon": "rangpur_dinajpur_chirirbandar.jpeg"
          },
          {
            "id": "400",
            "name": "Phulbari",
            "bn_name": "ফুলবাড়ি",
            "lat": "25.949467230688107",
            "long": "89.5705181987191",
            "icon": "rangpur_dinajpur_phulbari.jpeg"
          },
          {
            "id": "401",
            "name": "Ghoraghat",
            "bn_name": "ঘোড়াঘাট",
            "lat": "25.284255052469607",
            "long": "89.21431847644567",
            "icon": "rangpur_dinajpur_ghoraghat.jpeg"
          },
          {
            "id": "402",
            "name": "Hakimpur",
            "bn_name": "হাকিমপুর",
            "lat": "25.29204510632795",
            "long": "89.06207701978225",
            "icon": "rangpur_dinajpur_hakimpur.jpeg"
          },
          {
            "id": "403",
            "name": "Kaharole",
            "bn_name": "কাহারোল",
            "lat": "25.80089370868617",
            "long": "88.59885235779402",
            "icon": "rangpur_dinajpur_kaharole.jpeg"
          },
          {
            "id": "404",
            "name": "Khansama",
            "bn_name": "খানসামা",
            "lat": "25.86973271736335",
            "long": "88.76523050217023",
            "icon": "rangpur_dinajpur_khansama.jpeg"
          },
          {
            "id": "405",
            "name": "Dinajpur Sadar",
            "bn_name": "দিনাজপুর সদর",
            "lat": "25.608043003322955",
            "long": "88.67732386288483",
            "icon": "rangpur_dinajpur_dinajpur_sadar.jpeg"
          },
          {
            "id": "406",
            "name": "Nawabganj",
            "bn_name": "নবাবগঞ্জ",
            "lat": "23.673409837796672",
            "long": "90.16067480325049",
            "icon": "rangpur_dinajpur_nawabganj.jpeg"
          },
          {
            "id": "407",
            "name": "Parbatipur",
            "bn_name": "পার্বতীপুর",
            "lat": "25.61875805347378",
            "long": "88.92557656747344",
            "icon": "rangpur_dinajpur_parbatipur.jpeg"
          }
        ],
        "icon": "rangpur_dinajpur.jpeg"
      },
      {
        "id": "27",
        "name": "Gaibandha",
        "bn_name": "গাইবান্ধা",
        "lat": "25.328751",
        "long": "89.528088",
        "subdistricts": [
          {
            "id": "408",
            "name": "Fulchhari",
            "bn_name": "ফুলছড়ি",
            "lat": "25.2543972053553",
            "long": "89.6539568813143",
            "icon": "rangpur_gaibandha_fulchhari.jpeg"
          },
          {
            "id": "409",
            "name": "Gaibandha sadar",
            "bn_name": "গাইবান্ধা সদর",
            "lat": "25.34974828949943",
            "long": "89.56664228446319",
            "icon": "rangpur_gaibandha_gaibandha_sadar.jpeg"
          },
          {
            "id": "410",
            "name": "Gobindaganj",
            "bn_name": "গোবিন্দগঞ্জ",
            "lat": "25.15710178420341",
            "long": "89.36914558185856",
            "icon": "rangpur_gaibandha_gobindaganj.jpeg"
          },
          {
            "id": "411",
            "name": "Palashbari",
            "bn_name": "পলাশবাড়ী",
            "lat": "25.263608882169112",
            "long": "89.39677175948114",
            "icon": "rangpur_gaibandha_palashbari.jpeg"
          },
          {
            "id": "412",
            "name": "Sadullapur",
            "bn_name": "সাদুল্যাপুর",
            "lat": "25.394736515249985",
            "long": "89.42638404511763",
            "icon": "rangpur_gaibandha_sadullapur.jpeg"
          },
          {
            "id": "413",
            "name": "Saghata",
            "bn_name": "সাঘাটা",
            "lat": "25.123341458599512",
            "long": "89.56379241652765",
            "icon": "rangpur_gaibandha_saghata.jpeg"
          },
          {
            "id": "414",
            "name": "Sundarganj",
            "bn_name": "সুন্দরগঞ্জ",
            "lat": "25.5100484228396",
            "long": "89.56390048254292",
            "icon": "rangpur_gaibandha_sundarganj.jpeg"
          }
        ],
        "icon": "rangpur_gaibandha.jpeg"
      },
      {
        "id": "28",
        "name": "Kurigram",
        "bn_name": "কুড়িগ্রাম",
        "lat": "25.805445",
        "long": "89.636174",
        "subdistricts": [
          {
            "id": "415",
            "name": "Kurigram Sadar",
            "bn_name": "কুড়িগ্রাম সদর",
            "lat": "25.82602577318922",
            "long": "89.69070342964137",
            "icon": "rangpur_kurigram_kurigram_sadar.jpeg"
          },
          {
            "id": "416",
            "name": "Nageshwari",
            "bn_name": "নাগেশ্বরী",
            "lat": "25.958486294120796",
            "long": "89.7400666442582",
            "icon": "rangpur_kurigram_nageshwari.jpeg"
          },
          {
            "id": "417",
            "name": "Bhurungamari",
            "bn_name": "ভুরুঙ্গামারি",
            "lat": "26.116726194161046",
            "long": "89.69033003146274",
            "icon": "rangpur_kurigram_bhurungamari.jpeg"
          },
          {
            "id": "418",
            "name": "Phulbari",
            "bn_name": "ফুলবাড়ি",
            "lat": "25.949467230688107",
            "long": "89.5705181987191",
            "icon": "rangpur_kurigram_phulbari.jpeg"
          },
          {
            "id": "419",
            "name": "Rajarhat",
            "bn_name": "রাজারহাট",
            "lat": "25.786100419496123",
            "long": "89.54236459893596",
            "icon": "rangpur_kurigram_rajarhat.jpeg"
          },
          {
            "id": "420",
            "name": "Ulipur",
            "bn_name": "উলিপুর",
            "lat": "25.68908929115684",
            "long": "89.66894922221363",
            "icon": "rangpur_kurigram_ulipur.jpeg"
          },
          {
            "id": "421",
            "name": "Chilmari",
            "bn_name": "চিলমারি",
            "lat": "25.566268803120156",
            "long": "89.71838227522889",
            "icon": "rangpur_kurigram_chilmari.jpeg"
          },
          {
            "id": "422",
            "name": "Rowmari",
            "bn_name": "রউমারি",
            "lat": "25.59146206323826",
            "long": "89.82753974695669",
            "icon": "rangpur_kurigram_rowmari.jpeg"
          },
          {
            "id": "423",
            "name": "Char Rajibpur",
            "bn_name": "চর রাজিবপুর",
            "lat": "25.4432749363057",
            "long": "89.76387168156815",
            "icon": "rangpur_kurigram_char_rajibpur.jpeg"
          }
        ],
        "icon": "rangpur_kurigram.jpeg"
      },
      {
        "id": "29",
        "name": "Lalmonirhat",
        "bn_name": "লালমনিরহাট",
        "lat": "25.9923",
        "long": "89.2847",
        "subdistricts": [
          {
            "id": "424",
            "name": "Lalmanirhat Sadar",
            "bn_name": "লালমনিরহাট সদর",
            "lat": "25.874699579053672",
            "long": "89.45262091120888",
            "icon": "rangpur_lalmonirhat_lalmanirhat_sadar.jpeg"
          },
          {
            "id": "425",
            "name": "Aditmari",
            "bn_name": "আদিতমারি",
            "lat": "25.94501576520455",
            "long": "89.36945393829866",
            "icon": "rangpur_lalmonirhat_aditmari.jpeg"
          },
          {
            "id": "426",
            "name": "Kaliganj",
            "bn_name": "কালীগঞ্জ",
            "lat": "23.96426828908838",
            "long": "90.55492731090136",
            "icon": "rangpur_lalmonirhat_kaliganj.jpeg"
          },
          {
            "id": "427",
            "name": "Hatibandha",
            "bn_name": "হাতিবান্ধা",
            "lat": "26.121477184845865",
            "long": "89.14092574246796",
            "icon": "rangpur_lalmonirhat_hatibandha.jpeg"
          },
          {
            "id": "428",
            "name": "Patgram",
            "bn_name": "পাটগ্রাম",
            "lat": "26.33997075300871",
            "long": "89.02398711857192",
            "icon": "rangpur_lalmonirhat_patgram.jpeg"
          }
        ],
        "icon": "rangpur_lalmonirhat.jpeg"
      },
      {
        "id": "30",
        "name": "Nilphamari",
        "bn_name": "নীলফামারী",
        "lat": "25.931794",
        "long": "88.856006",
        "subdistricts": [
          {
            "id": "429",
            "name": "Nilphamari Sadar",
            "bn_name": "নীলফামারী সদর",
            "lat": "25.941666851619296",
            "long": "88.85487975325437",
            "icon": "rangpur_nilphamari_nilphamari_sadar.jpeg"
          },
          {
            "id": "430",
            "name": "Saidpur",
            "bn_name": "সৈয়দপুর",
            "lat": "25.80289785107054",
            "long": "88.92203443016241",
            "icon": "rangpur_nilphamari_saidpur.jpeg"
          },
          {
            "id": "431",
            "name": "Jaldhaka",
            "bn_name": "জলঢাকা",
            "lat": "26.029500496766993",
            "long": "88.9934357952129",
            "icon": "rangpur_nilphamari_jaldhaka.jpeg"
          },
          {
            "id": "432",
            "name": "Kishoreganj",
            "bn_name": "কিশোরগঞ্জ",
            "lat": "25.896028581944034",
            "long": "89.03286573917633",
            "icon": "rangpur_nilphamari_kishoreganj.jpeg"
          },
          {
            "id": "433",
            "name": "Domar",
            "bn_name": "ডোমার",
            "lat": "26.15854511740707",
            "long": "88.82523621670092",
            "icon": "rangpur_nilphamari_domar.jpeg"
          },
          {
            "id": "434",
            "name": "Dimla",
            "bn_name": "ডিমলা",
            "lat": "26.17202647648622",
            "long": "88.97258689839089",
            "icon": "rangpur_nilphamari_dimla.jpeg"
          }
        ],
        "icon": "rangpur_nilphamari.jpeg"
      },
      {
        "id": "31",
        "name": "Panchagarh",
        "bn_name": "পঞ্চগড়",
        "lat": "26.3411",
        "long": "88.5541606",
        "subdistricts": [
          {
            "id": "435",
            "name": "Panchagarh Sadar",
            "bn_name": "পঞ্চগড় সদর",
            "lat": "26.367485709618176",
            "long": "88.58175353795545",
            "icon": "rangpur_panchagarh_panchagarh_sadar.jpeg"
          },
          {
            "id": "436",
            "name": "Debiganj",
            "bn_name": "দেবীগঞ্জ",
            "lat": "26.13206194243913",
            "long": "88.71946651994716",
            "icon": "rangpur_panchagarh_debiganj.jpeg"
          },
          {
            "id": "437",
            "name": "Boda",
            "bn_name": "বোদা",
            "lat": "26.230654034593027",
            "long": "88.6126423557687",
            "icon": "rangpur_panchagarh_boda.jpeg"
          },
          {
            "id": "438",
            "name": "Atwari",
            "bn_name": "আটোয়ারি",
            "lat": "26.249541156736115",
            "long": "88.42639499524464",
            "icon": "rangpur_panchagarh_atwari.jpeg"
          },
          {
            "id": "439",
            "name": "Tetulia",
            "bn_name": "তেতুলিয়া",
            "lat": "26.513536568900584",
            "long": "88.42984644239924",
            "icon": "rangpur_panchagarh_tetulia.jpeg"
          }
        ],
        "icon": "rangpur_panchagarh.jpeg"
      },
      {
        "id": "32",
        "name": "Rangpur",
        "bn_name": "রংপুর",
        "lat": "25.7558096",
        "long": "89.244462",
        "subdistricts": [
          {
            "id": "440",
            "name": "Badarganj",
            "bn_name": "বদরগঞ্জ",
            "lat": "25.665973446271742",
            "long": "89.05630061121062",
            "icon": "rangpur_rangpur_badarganj.jpeg"
          },
          {
            "id": "441",
            "name": "Mitha Pukur",
            "bn_name": "মিঠাপুকুর",
            "lat": "25.571429258839014",
            "long": "89.26115540394768"
          },
          {
            "id": "442",
            "name": "Ganga Chara",
            "bn_name": "গঙ্গাচরা",
            "lat": "25.874217938847995",
            "long": "89.19339087365479",
            "icon": "rangpur_rangpur_ganga_chara.jpeg"
          },
          {
            "id": "443",
            "name": "Kaunia",
            "bn_name": "কাউনিয়া",
            "lat": "25.763769396137224",
            "long": "89.39494829988291",
            "icon": "rangpur_rangpur_kaunia.jpeg"
          },
          {
            "id": "444",
            "name": "Rangpur Sadar",
            "bn_name": "রংপুর সদর",
            "lat": "25.7458943730729",
            "long": "89.21234671382187",
            "icon": "rangpur_rangpur_rangpur_sadar.jpeg"
          },
          {
            "id": "445",
            "name": "Pirgachha",
            "bn_name": "পীরগাছা",
            "lat": "25.66507663180394",
            "long": "89.42005497107536",
            "icon": "rangpur_rangpur_pirgachha.jpeg"
          },
          {
            "id": "446",
            "name": "Pirganj",
            "bn_name": "পীরগঞ্জ",
            "lat": "25.42370973181577",
            "long": "89.27429120858385",
            "icon": "rangpur_rangpur_pirganj.jpeg"
          },
          {
            "id": "447",
            "name": "Taraganj",
            "bn_name": "তারাগঞ্জ",
            "lat": "25.780634998395396",
            "long": "89.03326211164513",
            "icon": "rangpur_rangpur_taraganj.jpeg"
          }
        ],
        "icon": "rangpur_rangpur.jpeg"
      },
      {
        "id": "33",
        "name": "Thakurgaon",
        "bn_name": "ঠাকুরগাঁও",
        "lat": "26.0336945",
        "long": "88.4616834",
        "subdistricts": [
          {
            "id": "448",
            "name": "Thakurgaon Sadar",
            "bn_name": "ঠাকুরগাঁও সদর",
            "lat": "26.07065550222439",
            "long": "88.46446237739008",
            "icon": "rangpur_thakurgaon_thakurgaon_sadar.jpeg"
          },
          {
            "id": "449",
            "name": "Pirganj",
            "bn_name": "পীরগঞ্জ",
            "lat": "25.42370973181577",
            "long": "89.27429120858385",
            "icon": "rangpur_thakurgaon_pirganj.jpeg"
          },
          {
            "id": "450",
            "name": "Baliadangi",
            "bn_name": "বালিয়াডাঙ্গি",
            "lat": "26.10845618025055",
            "long": "88.26374443857033",
            "icon": "rangpur_thakurgaon_baliadangi.jpeg"
          },
          {
            "id": "451",
            "name": "Haripur",
            "bn_name": "হরিপুর",
            "lat": "25.87847397987557",
            "long": "88.15483413655954",
            "icon": "rangpur_thakurgaon_haripur.jpeg"
          },
          {
            "id": "452",
            "name": "Ranisankail",
            "bn_name": "রাণীসংকইল",
            "lat": "25.940084172145134",
            "long": "88.24580997957146",
            "icon": "rangpur_thakurgaon_ranisankail.jpeg"
          }
        ],
        "icon": "rangpur_thakurgaon.jpeg"
      }
    ],
    "icon": "rangpur.jpeg"
  },
  {
    "id": "7",
    "name": "Sylhet",
    "bn_name": "সিলেট",
    "lat": "24.894929",
    "long": "91.868706",
    "districts": [
      {
        "id": "51",
        "name": "Habiganj",
        "bn_name": "হবিগঞ্জ",
        "lat": "24.374945",
        "long": "91.41553",
        "subdistricts": [
          {
            "id": "453",
            "name": "Ajmiriganj",
            "bn_name": "আজমিরিগঞ্জ",
            "lat": "24.55331228982608",
            "long": "91.2841877763222",
            "icon": "sylhet_habiganj_ajmiriganj.jpeg"
          },
          {
            "id": "454",
            "name": "Baniachang",
            "bn_name": "বানিয়াচং",
            "lat": "24.49473529951297",
            "long": "91.36544106819863",
            "icon": "sylhet_habiganj_baniachang.jpeg"
          },
          {
            "id": "455",
            "name": "Bahubal",
            "bn_name": "বাহুবল",
            "lat": "24.36058421409485",
            "long": "91.54648830803971",
            "icon": "sylhet_habiganj_bahubal.jpeg"
          },
          {
            "id": "456",
            "name": "Chunarughat",
            "bn_name": "চুনারুঘাট",
            "lat": "24.181646768503427",
            "long": "91.5173447820377",
            "icon": "sylhet_habiganj_chunarughat.jpeg"
          },
          {
            "id": "457",
            "name": "Habiganj Sadar",
            "bn_name": "হবিগঞ্জ সদর",
            "lat": "24.335922587529268",
            "long": "91.41427385069036",
            "icon": "sylhet_habiganj_habiganj_sadar.jpeg"
          },
          {
            "id": "458",
            "name": "Lakhai",
            "bn_name": "লাক্ষাই",
            "lat": "24.298099387663296",
            "long": "91.26038569367978",
            "icon": "sylhet_habiganj_lakhai.jpeg"
          },
          {
            "id": "459",
            "name": "Madhabpur",
            "bn_name": "মাধবপুর",
            "lat": "24.120473697735736",
            "long": "91.34146540853231",
            "icon": "sylhet_habiganj_madhabpur.jpeg"
          },
          {
            "id": "460",
            "name": "Nabiganj",
            "bn_name": "নবীগঞ্জ",
            "lat": "24.569615338359817",
            "long": "91.54450071317022",
            "icon": "sylhet_habiganj_nabiganj.jpeg"
          },
          {
            "id": "461",
            "name": "Shaistaganj",
            "bn_name": "শায়েস্তাগঞ্জ",
            "lat": "24.27729",
            "long": "91.45081",
            "icon": "sylhet_habiganj_shaistaganj.jpeg"
          }
        ],
        "icon": "sylhet_habiganj.jpeg"
      },
      {
        "id": "52",
        "name": "Maulvibazar",
        "bn_name": "মৌলভীবাজার",
        "lat": "24.482934",
        "long": "91.777417",
        "subdistricts": [
          {
            "id": "462",
            "name": "Moulvi Bazar Sadar",
            "bn_name": "মৌলভীবাজার",
            "lat": "24.499524549942304",
            "long": "91.71231675779886",
            "icon": "sylhet_maulvibazar_moulvi_bazar_sadar.jpeg"
          },
          {
            "id": "463",
            "name": "Barlekha",
            "bn_name": "বড়লেখা",
            "lat": "24.70815684135278",
            "long": "92.17559771569186",
            "icon": "sylhet_maulvibazar_barlekha.jpeg"
          },
          {
            "id": "464",
            "name": "Juri",
            "bn_name": "জুড়ি",
            "lat": "24.55313061292543",
            "long": "92.14322442803828",
            "icon": "sylhet_maulvibazar_juri.jpeg"
          },
          {
            "id": "465",
            "name": "Kamalganj",
            "bn_name": "কামালগঞ্জ",
            "lat": "24.315678684822412",
            "long": "91.85922100678708",
            "icon": "sylhet_maulvibazar_kamalganj.jpeg"
          },
          {
            "id": "466",
            "name": "Kulaura",
            "bn_name": "কুলাউরা",
            "lat": "24.4902920676529",
            "long": "92.01234154015285",
            "icon": "sylhet_maulvibazar_kulaura.jpeg"
          },
          {
            "id": "467",
            "name": "Rajnagar",
            "bn_name": "রাজনগর",
            "lat": "24.56527024710569",
            "long": "91.86085613203645",
            "icon": "sylhet_maulvibazar_rajnagar.jpeg"
          },
          {
            "id": "468",
            "name": "Sreemangal",
            "bn_name": "শ্রীমঙ্গল",
            "lat": "24.30105773971284",
            "long": "91.69794711193684",
            "icon": "sylhet_maulvibazar_sreemangal.jpeg"
          }
        ],
        "icon": "sylhet_maulvibazar.jpeg"
      },
      {
        "id": "53",
        "name": "Sunamganj",
        "bn_name": "সুনামগঞ্জ",
        "lat": "25.0658042",
        "long": "91.3950115",
        "subdistricts": [
          {
            "id": "469",
            "name": "Bishwamvarpur",
            "bn_name": "বিসশম্ভারপুর",
            "lat": "25.10976709207464",
            "long": "91.31505406867848",
            "icon": "sylhet_sunamganj_bishwamvarpur.jpeg"
          },
          {
            "id": "470",
            "name": "Chhatak",
            "bn_name": "ছাতক",
            "lat": "24.943884009376667",
            "long": "91.6155373192466",
            "icon": "sylhet_sunamganj_chhatak.jpeg"
          },
          {
            "id": "471",
            "name": "Derai",
            "bn_name": "দেড়াই",
            "lat": "24.787495803553565",
            "long": "91.33600700301406",
            "icon": "sylhet_sunamganj_derai.jpeg"
          },
          {
            "id": "472",
            "name": "Dharampasha",
            "bn_name": "ধরমপাশা",
            "lat": "25.010787047498013",
            "long": "91.04073297593636",
            "icon": "sylhet_sunamganj_dharampasha.jpeg"
          },
          {
            "id": "473",
            "name": "Dowara Bazar",
            "bn_name": "দোয়ারাবাজার",
            "lat": "25.071763856115677",
            "long": "91.56256726438424",
            "icon": "sylhet_sunamganj_dowara_bazar.jpeg"
          },
          {
            "id": "474",
            "name": "Jagannathpur",
            "bn_name": "জগন্নাথপুর",
            "lat": "24.746939742331797",
            "long": "91.55585324883036",
            "icon": "sylhet_sunamganj_jagannathpur.jpeg"
          },
          {
            "id": "475",
            "name": "Jamalganj",
            "bn_name": "জামালগঞ্জ",
            "lat": "24.95413145769465",
            "long": "91.20306128364086",
            "icon": "sylhet_sunamganj_jamalganj.jpeg"
          },
          {
            "id": "476",
            "name": "Sulla",
            "bn_name": "সুল্লা",
            "lat": "24.686329977051123",
            "long": "91.25706721231904",
            "icon": "sylhet_sunamganj_sulla.jpeg"
          },
          {
            "id": "477",
            "name": "Sunamganj Sadar",
            "bn_name": "সুনামগঞ্জ সদর",
            "lat": "25.05078879437396",
            "long": "91.39546976205364",
            "icon": "sylhet_sunamganj_sunamganj_sadar.jpeg"
          },
          {
            "id": "478",
            "name": "Shanthiganj",
            "bn_name": "শান্তিগঞ্জ",
            "lat": "24.912534850327972",
            "long": "91.41070893346978"
          },
          {
            "id": "479",
            "name": "Tahirpur",
            "bn_name": "তাহিরপুর",
            "lat": "25.12811290060556",
            "long": "91.16337252720676",
            "icon": "sylhet_sunamganj_tahirpur.jpeg"
          }
        ],
        "icon": "sylhet_sunamganj.jpeg"
      },
      {
        "id": "54",
        "name": "Sylhet",
        "bn_name": "সিলেট",
        "lat": "24.8897956",
        "long": "91.8697894",
        "subdistricts": [
          {
            "id": "480",
            "name": "Sylhet Sadar",
            "bn_name": "সিলেট সদর",
            "lat": "24.941262413102024",
            "long": "91.8474248919922",
            "icon": "sylhet_sylhet_sylhet_sadar.jpeg"
          },
          {
            "id": "481",
            "name": "Beani Bazar",
            "bn_name": "বেয়ানিবাজার",
            "lat": "24.848892391893916",
            "long": "92.15889633233242",
            "icon": "sylhet_sylhet_beani_bazar.jpeg"
          },
          {
            "id": "482",
            "name": "Bishwanath",
            "bn_name": "বিশ্বনাথ",
            "lat": "24.835043471854437",
            "long": "91.72921042988808",
            "icon": "sylhet_sylhet_bishwanath.jpeg"
          },
          {
            "id": "483",
            "name": "Dakshin Surma",
            "bn_name": "দক্ষিণ সুরমা",
            "lat": "24.81609567821404",
            "long": "91.8769755627105",
            "icon": "sylhet_sylhet_dakshin_surma.jpeg"
          },
          {
            "id": "484",
            "name": "Balaganj",
            "bn_name": "বালাগঞ্জ",
            "lat": "24.695426160543903",
            "long": "91.77334795367236",
            "icon": "sylhet_sylhet_balaganj.jpeg"
          },
          {
            "id": "485",
            "name": "Companiganj",
            "bn_name": "কোম্পানিগঞ্জ",
            "lat": "22.770130887606467",
            "long": "91.28199731825924",
            "icon": "sylhet_sylhet_companiganj.jpeg"
          },
          {
            "id": "486",
            "name": "Fenchuganj",
            "bn_name": "ফেঞ্চুগঞ্জ",
            "lat": "24.69379398034676",
            "long": "91.96177243604257",
            "icon": "sylhet_sylhet_fenchuganj.jpeg"
          },
          {
            "id": "487",
            "name": "Golapganj",
            "bn_name": "গোলাপগঞ্জ",
            "lat": "24.812005135979483",
            "long": "92.01698221083088",
            "icon": "sylhet_sylhet_golapganj.jpeg"
          },
          {
            "id": "488",
            "name": "Gowainghat",
            "bn_name": "গোয়াইনঘাট",
            "lat": "25.083149779975138",
            "long": "91.9583377974488",
            "icon": "sylhet_sylhet_gowainghat.jpeg"
          },
          {
            "id": "489",
            "name": "Jaintiapur",
            "bn_name": "জয়ন্তপুর",
            "lat": "25.056423312475605",
            "long": "92.10140912688811",
            "icon": "sylhet_sylhet_jaintiapur.jpeg"
          },
          {
            "id": "490",
            "name": "Kanaighat",
            "bn_name": "কানাইঘাট",
            "lat": "24.993533143208285",
            "long": "92.2180718136862",
            "icon": "sylhet_sylhet_kanaighat.jpeg"
          },
          {
            "id": "491",
            "name": "Zakiganj",
            "bn_name": "জাকিগঞ্জ",
            "lat": "24.92611031753048",
            "long": "92.36720442231618",
            "icon": "sylhet_sylhet_zakiganj.jpeg"
          },
          {
            "id": "492",
            "name": "Nobigonj",
            "bn_name": "নবীগঞ্জ",
            "lat": "24.569615338359817",
            "long": "91.54450071317022",
            "icon": "sylhet_sylhet_nobigonj.jpeg"
          }
        ],
        "icon": "sylhet_sylhet.jpeg"
      }
    ],
    "icon": "sylhet.jpeg"
  },
  {
    "id": "8",
    "name": "Mymensingh",
    "bn_name": "ময়মনসিংহ",
    "lat": "24.747149",
    "long": "90.420273",
    "districts": [
      {
        "id": "5",
        "name": "Jamalpur",
        "bn_name": "জামালপুর",
        "lat": "24.937533",
        "long": "89.937775",
        "subdistricts": [
          {
            "id": "170",
            "name": "Dewanganj",
            "bn_name": "দেওয়ানগঞ্জ",
            "lat": "25.263451584573005",
            "long": "89.76598324460696",
            "icon": "mymensingh_jamalpur_dewanganj.jpeg"
          },
          {
            "id": "171",
            "name": "Baksiganj",
            "bn_name": "বকসিগঞ্জ",
            "lat": "25.214774942096664",
            "long": "89.85260429304658",
            "icon": "mymensingh_jamalpur_baksiganj.jpeg"
          },
          {
            "id": "172",
            "name": "Islampur",
            "bn_name": "ইসলামপুর",
            "lat": "25.075195270598982",
            "long": "89.76127109700974",
            "icon": "mymensingh_jamalpur_islampur.jpeg"
          },
          {
            "id": "173",
            "name": "Jamalpur Sadar",
            "bn_name": "জামালপুর সদর",
            "lat": "24.84415326097784",
            "long": "90.01248543154139",
            "icon": "mymensingh_jamalpur_jamalpur_sadar.jpeg"
          },
          {
            "id": "174",
            "name": "Madarganj",
            "bn_name": "মাদারগঞ্জ",
            "lat": "24.88189278406725",
            "long": "89.74082341757882",
            "icon": "mymensingh_jamalpur_madarganj.jpeg"
          },
          {
            "id": "175",
            "name": "Melandaha",
            "bn_name": "মেলানদাহা",
            "lat": "24.957366182988657",
            "long": "89.82467010447654",
            "icon": "mymensingh_jamalpur_melandaha.jpeg"
          },
          {
            "id": "176",
            "name": "Sarishabari",
            "bn_name": "সরিষাবাড়ি ",
            "lat": "24.7185099939119",
            "long": "89.8304779137288",
            "icon": "mymensingh_jamalpur_sarishabari.jpeg"
          },
          {
            "id": "177",
            "name": "Narundi",
            "bn_name": "নারুন্দি",
            "lat": "24.84415326097784",
            "long": "90.01248543154139"
          }
        ],
        "icon": "mymensingh_jamalpur.jpeg"
      },
      {
        "id": "10",
        "name": "Mymensingh",
        "bn_name": "ময়মনসিংহ",
        "lat": "24.7471",
        "long": "90.4203",
        "subdistricts": [
          {
            "id": "208",
            "name": "Bhaluka",
            "bn_name": "ভালুকা",
            "lat": "24.381703809985197",
            "long": "90.35355060994286",
            "icon": "mymensingh_mymensingh_bhaluka.jpeg"
          },
          {
            "id": "209",
            "name": "Trishal",
            "bn_name": "ত্রিশাল",
            "lat": "24.56384791177843",
            "long": "90.40941434542523",
            "icon": "mymensingh_mymensingh_trishal.jpeg"
          },
          {
            "id": "210",
            "name": "Haluaghat",
            "bn_name": "হালুয়াঘাট",
            "lat": "25.084649273799695",
            "long": "90.35132732733196",
            "icon": "mymensingh_mymensingh_haluaghat.jpeg"
          },
          {
            "id": "211",
            "name": "Muktagachha",
            "bn_name": "মুক্তাগাছা",
            "lat": "24.74297089798684",
            "long": "90.20379739495714",
            "icon": "mymensingh_mymensingh_muktagachha.jpeg"
          },
          {
            "id": "212",
            "name": "Dhobaura",
            "bn_name": "ধবারুয়া",
            "lat": "25.10111821019576",
            "long": "90.5249187179176",
            "icon": "mymensingh_mymensingh_dhobaura.jpeg"
          },
          {
            "id": "213",
            "name": "Fulbaria",
            "bn_name": "ফুলবাড়িয়া",
            "lat": "24.586513230701406",
            "long": "90.25451342977291",
            "icon": "mymensingh_mymensingh_fulbaria.jpeg"
          },
          {
            "id": "214",
            "name": "Gaffargaon",
            "bn_name": "গফরগাঁও",
            "lat": "24.393561154810783",
            "long": "90.54950437372212",
            "icon": "mymensingh_mymensingh_gaffargaon.jpeg"
          },
          {
            "id": "215",
            "name": "Gauripur",
            "bn_name": "গৌরিপুর",
            "lat": "24.756013318160324",
            "long": "90.5858901676087",
            "icon": "mymensingh_mymensingh_gauripur.jpeg"
          },
          {
            "id": "216",
            "name": "Ishwarganj",
            "bn_name": "ঈশ্বরগঞ্জ",
            "lat": "24.645028446889004",
            "long": "90.59948225359408",
            "icon": "mymensingh_mymensingh_ishwarganj.jpeg"
          },
          {
            "id": "217",
            "name": "Mymensingh Sadar",
            "bn_name": "ময়মনসিং সদর",
            "lat": "24.77458851169472",
            "long": "90.36154050400644",
            "icon": "mymensingh_mymensingh_mymensingh_sadar.jpeg"
          },
          {
            "id": "218",
            "name": "Nandail",
            "bn_name": "নন্দাইল",
            "lat": "24.550178338085445",
            "long": "90.6771621461936",
            "icon": "mymensingh_mymensingh_nandail.jpeg"
          },
          {
            "id": "219",
            "name": "Phulpur",
            "bn_name": "ফুলপুর",
            "lat": "24.908529952708093",
            "long": "90.40645680312736",
            "icon": "mymensingh_mymensingh_phulpur.jpeg"
          }
        ],
        "icon": "mymensingh_mymensingh.jpeg"
      },
      {
        "id": "13",
        "name": "Netrokona",
        "bn_name": "নেত্রকোণা",
        "lat": "24.870955",
        "long": "90.727887",
        "subdistricts": [
          {
            "id": "232",
            "name": "Kendua",
            "bn_name": "কেন্দুয়া",
            "lat": "24.677321713756847",
            "long": "90.8028899019779",
            "icon": "mymensingh_netrokona_kendua.jpeg"
          },
          {
            "id": "233",
            "name": "At Para",
            "bn_name": "আটপাড়া",
            "lat": "24.79134390765958",
            "long": "90.8760688387034",
            "icon": "mymensingh_netrokona_at_para.jpeg"
          },
          {
            "id": "234",
            "name": "Barhatta",
            "bn_name": "বরহাট্টা",
            "lat": "24.919534712049703",
            "long": "90.88533504354",
            "icon": "mymensingh_netrokona_barhatta.jpeg"
          },
          {
            "id": "235",
            "name": "Durgapur",
            "bn_name": "দুর্গাপুর",
            "lat": "25.089631018889943",
            "long": "90.68207305086096",
            "icon": "mymensingh_netrokona_durgapur.jpeg"
          },
          {
            "id": "236",
            "name": "Kalmakanda",
            "bn_name": "কলমাকান্দা",
            "lat": "25.07688513289361",
            "long": "90.8572758791854",
            "icon": "mymensingh_netrokona_kalmakanda.jpeg"
          },
          {
            "id": "237",
            "name": "Madan",
            "bn_name": "মদন",
            "lat": "24.67752927724752",
            "long": "90.96707520042116",
            "icon": "mymensingh_netrokona_madan.jpeg"
          },
          {
            "id": "238",
            "name": "Mohanganj",
            "bn_name": "মোহনগঞ্জ",
            "lat": "24.82676741565768",
            "long": "91.02366606504084",
            "icon": "mymensingh_netrokona_mohanganj.jpeg"
          },
          {
            "id": "239",
            "name": "Netrakona Sadar",
            "bn_name": "নেত্রকোনা সদর",
            "lat": "24.886755676039424",
            "long": "90.7373739515975",
            "icon": "mymensingh_netrokona_netrakona_sadar.jpeg"
          },
          {
            "id": "240",
            "name": "Purbadhala",
            "bn_name": "পূর্বধলা",
            "lat": "24.933841699608926",
            "long": "90.60197031110287",
            "icon": "mymensingh_netrokona_purbadhala.jpeg"
          },
          {
            "id": "241",
            "name": "Khaliajuri",
            "bn_name": "খালিয়াজুরি",
            "lat": "24.70235965861526",
            "long": "91.12130828009624",
            "icon": "mymensingh_netrokona_khaliajuri.jpeg"
          }
        ],
        "icon": "mymensingh_netrokona.jpeg"
      },
      {
        "id": "16",
        "name": "Sherpur",
        "bn_name": "শেরপুর",
        "lat": "25.0204933",
        "long": "90.0152966",
        "subdistricts": [
          {
            "id": "253",
            "name": "Jhenaigati",
            "bn_name": "ঝিনাইগাতি",
            "lat": "25.18183981334995",
            "long": "90.05297400565517",
            "icon": "mymensingh_sherpur_jhenaigati.jpeg"
          },
          {
            "id": "254",
            "name": "Nakla",
            "bn_name": "নাকলা",
            "lat": "24.956771883102988",
            "long": "90.18370323632804",
            "icon": "mymensingh_sherpur_nakla.jpeg"
          },
          {
            "id": "255",
            "name": "Nalitabari",
            "bn_name": "নালিতাবাড়ি",
            "lat": "25.117592470863745",
            "long": "90.1835075778046",
            "icon": "mymensingh_sherpur_nalitabari.jpeg"
          },
          {
            "id": "256",
            "name": "Sherpur Sadar",
            "bn_name": "শেরপুর সদর",
            "lat": "24.992911698621903",
            "long": "90.01988114248267",
            "icon": "mymensingh_sherpur_sherpur_sadar.jpeg"
          },
          {
            "id": "257",
            "name": "Sreebardi",
            "bn_name": "শ্রীবরদি",
            "lat": "25.16566574476169",
            "long": "89.95490032459769",
            "icon": "mymensingh_sherpur_sreebardi.jpeg"
          }
        ],
        "icon": "mymensingh_sherpur.jpeg"
      }
    ],
    "icon": "mymensingh.jpeg"
  }
]